[{"STATE_CODE": "06", "COUNTY_CODE": "001", "COUNTY": "Alameda", "EPA_ID": "0007", "SITE_LATITUDE": "37.687526", "SITE_LONGITUDE": "-121.784217", "zipcode_intersections": [{"zipcode": 94550, "circle_area": 78.41371226364757, "zipcode_area": 723.0774513550052, "intersection_area": 30.273566611637072}, {"zipcode": 94551, "circle_area": 78.41371226364757, "zipcode_area": 219.9946799699991, "intersection_area": 44.883175863404574}, {"zipcode": 94566, "circle_area": 78.41371226364757, "zipcode_area": 55.07925932500156, "intersection_area": 2.94292841869074}, {"zipcode": 94588, "circle_area": 78.41371226364757, "zipcode_area": 87.72413572999996, "intersection_area": 0.3140413699150512}]}, {"STATE_CODE": "06", "COUNTY_CODE": "001", "COUNTY": "Alameda", "EPA_ID": "0009", "SITE_LATITUDE": "37.743065", "SITE_LONGITUDE": "-122.169935", "zipcode_intersections": [{"zipcode": 94546, "circle_area": 78.41371226364757, "zipcode_area": 46.30090252500004, "intersection_area": 0.006331323574505394}, {"zipcode": 94577, "circle_area": 78.41371226364757, "zipcode_area": 23.36085617999932, "intersection_area": 21.19969502900881}, {"zipcode": 94578, "circle_area": 78.41371226364757, "zipcode_area": 12.063395625000314, "intersection_area": 2.8724809029306453}, {"zipcode": 94579, "circle_area": 78.41371226364757, "zipcode_area": 8.274340430000079, "intersection_area": 0.9806233268329976}, {"zipcode": 94601, "circle_area": 78.41371226364757, "zipcode_area": 8.72453041500002, "intersection_area": 1.604493239813986}, {"zipcode": 94603, "circle_area": 78.41371226364757, "zipcode_area": 7.143007030000031, "intersection_area": 7.143007030000023}, {"zipcode": 94605, "circle_area": 78.41371226364757, "zipcode_area": 23.531022744999223, "intersection_area": 22.46450069205688}, {"zipcode": 94619, "circle_area": 78.41371226364757, "zipcode_area": 22.110236165000355, "intersection_area": 4.922363844651902}, {"zipcode": 94621, "circle_area": 78.41371226364757, "zipcode_area": 27.297898185001515, "intersection_area": 16.571073399778044}]}, {"STATE_CODE": "06", "COUNTY_CODE": "001", "COUNTY": "Alameda", "EPA_ID": "0011", "SITE_LATITUDE": "37.814781", "SITE_LONGITUDE": "-122.282347", "zipcode_intersections": [{"zipcode": 94501, "circle_area": 78.41371226364757, "zipcode_area": 28.3997915499999, "intersection_area": 16.029915868479236}, {"zipcode": 94602, "circle_area": 78.41371226364757, "zipcode_area": 9.638447930000462, "intersection_area": 2.3070362881502395e-06}, {"zipcode": 94606, "circle_area": 78.41371226364757, "zipcode_area": 6.779435535000005, "intersection_area": 4.402887250762068}, {"zipcode": 94607, "circle_area": 78.41371226364757, "zipcode_area": 20.709069810000276, "intersection_area": 18.237733060663334}, {"zipcode": 94608, "circle_area": 78.41371226364757, "zipcode_area": 9.430877089999818, "intersection_area": 9.430877089999806}, {"zipcode": 94609, "circle_area": 78.41371226364757, "zipcode_area": 4.414409885000351, "intersection_area": 4.414409885000357}, {"zipcode": 94610, "circle_area": 78.41371226364757, "zipcode_area": 5.542076009999766, "intersection_area": 4.1726555637864635}, {"zipcode": 94611, "circle_area": 78.41371226364757, "zipcode_area": 19.35493137999964, "intersection_area": 3.7812057587250227}, {"zipcode": 94612, "circle_area": 78.41371226364757, "zipcode_area": 3.155522349999844, "intersection_area": 3.155522349999843}, {"zipcode": 94618, "circle_area": 78.41371226364757, "zipcode_area": 6.462187420000546, "intersection_area": 2.625186250379566}, {"zipcode": 94702, "circle_area": 78.41371226364757, "zipcode_area": 3.3996529350001867, "intersection_area": 1.421830751223264}, {"zipcode": 94703, "circle_area": 78.41371226364757, "zipcode_area": 3.4146711450002387, "intersection_area": 1.862457143478879}, {"zipcode": 94704, "circle_area": 78.41371226364757, "zipcode_area": 2.2557141000004295, "intersection_area": 0.182286329784926}, {"zipcode": 94705, "circle_area": 78.41371226364757, "zipcode_area": 8.96511196499939, "intersection_area": 1.0087415422537758}, {"zipcode": 94710, "circle_area": 78.41371226364757, "zipcode_area": 11.732363309998474, "intersection_area": 2.9256943360596175}]}, {"STATE_CODE": "06", "COUNTY_CODE": "001", "COUNTY": "Alameda", "EPA_ID": "0012", "SITE_LATITUDE": "37.793624", "SITE_LONGITUDE": "-122.263376", "zipcode_intersections": [{"zipcode": 94501, "circle_area": 78.41371226364757, "zipcode_area": 28.3997915499999, "intersection_area": 22.365276695416256}, {"zipcode": 94502, "circle_area": 78.41371226364757, "zipcode_area": 6.678694415000147, "intersection_area": 0.29042544925148644}, {"zipcode": 94601, "circle_area": 78.41371226364757, "zipcode_area": 8.72453041500002, "intersection_area": 4.653990187671667}, {"zipcode": 94602, "circle_area": 78.41371226364757, "zipcode_area": 9.638447930000462, "intersection_area": 2.3718014387756177}, {"zipcode": 94606, "circle_area": 78.41371226364757, "zipcode_area": 6.779435535000005, "intersection_area": 6.779435535}, {"zipcode": 94607, "circle_area": 78.41371226364757, "zipcode_area": 20.709069810000276, "intersection_area": 12.1296882828446}, {"zipcode": 94608, "circle_area": 78.41371226364757, "zipcode_area": 9.430877089999818, "intersection_area": 4.135566577920729}, {"zipcode": 94609, "circle_area": 78.41371226364757, "zipcode_area": 4.414409885000351, "intersection_area": 3.269305504974539}, {"zipcode": 94610, "circle_area": 78.41371226364757, "zipcode_area": 5.542076009999766, "intersection_area": 5.535166716272837}, {"zipcode": 94611, "circle_area": 78.41371226364757, "zipcode_area": 19.35493137999964, "intersection_area": 5.206752312986539}, {"zipcode": 94612, "circle_area": 78.41371226364757, "zipcode_area": 3.155522349999844, "intersection_area": 3.155522349999843}, {"zipcode": 94618, "circle_area": 78.41371226364757, "zipcode_area": 6.462187420000546, "intersection_area": 1.164071757001138}]}, {"STATE_CODE": "06", "COUNTY_CODE": "001", "COUNTY": "Alameda", "EPA_ID": "0013", "SITE_LATITUDE": "37.864767", "SITE_LONGITUDE": "-122.302741", "zipcode_intersections": [{"zipcode": 94530, "circle_area": 78.41371226364757, "zipcode_area": 11.491940730000115, "intersection_area": 3.0426772056158375}, {"zipcode": 94607, "circle_area": 78.41371226364757, "zipcode_area": 20.709069810000276, "intersection_area": 3.6811572591490638}, {"zipcode": 94608, "circle_area": 78.41371226364757, "zipcode_area": 9.430877089999818, "intersection_area": 9.182104391454237}, {"zipcode": 94609, "circle_area": 78.41371226364757, "zipcode_area": 4.414409885000351, "intersection_area": 2.3063148471550767}, {"zipcode": 94618, "circle_area": 78.41371226364757, "zipcode_area": 6.462187420000546, "intersection_area": 0.18147394372928136}, {"zipcode": 94702, "circle_area": 78.41371226364757, "zipcode_area": 3.3996529350001867, "intersection_area": 3.399652935000187}, {"zipcode": 94703, "circle_area": 78.41371226364757, "zipcode_area": 3.4146711450002387, "intersection_area": 3.4146711450002374}, {"zipcode": 94704, "circle_area": 78.41371226364757, "zipcode_area": 2.2557141000004295, "intersection_area": 1.7631371703445784}, {"zipcode": 94705, "circle_area": 78.41371226364757, "zipcode_area": 8.96511196499939, "intersection_area": 1.210484519574077}, {"zipcode": 94706, "circle_area": 78.41371226364757, "zipcode_area": 3.884475059999923, "intersection_area": 3.884475059999919}, {"zipcode": 94707, "circle_area": 78.41371226364757, "zipcode_area": 4.674836709999777, "intersection_area": 4.148049390732536}, {"zipcode": 94708, "circle_area": 78.41371226364757, "zipcode_area": 8.867485789999433, "intersection_area": 1.6567308383262394}, {"zipcode": 94709, "circle_area": 78.41371226364757, "zipcode_area": 1.7919064350000282, "intersection_area": 1.7914201584416194}, {"zipcode": 94710, "circle_area": 78.41371226364757, "zipcode_area": 11.732363309998474, "intersection_area": 11.732363309998448}, {"zipcode": 94720, "circle_area": 78.41371226364757, "zipcode_area": 1.8684477999999414, "intersection_area": 0.6698771200429979}, {"zipcode": 94804, "circle_area": 78.41371226364757, "zipcode_area": 24.7104319900001, "intersection_area": 4.734630416419396}]}, {"STATE_CODE": "06", "COUNTY_CODE": "001", "COUNTY": "Alameda", "EPA_ID": "0015", "SITE_LATITUDE": "37.701222", "SITE_LONGITUDE": "-121.903019", "zipcode_intersections": [{"zipcode": 94506, "circle_area": 78.41371226364757, "zipcode_area": 49.46737061000004, "intersection_area": 0.0618630050087004}, {"zipcode": 94566, "circle_area": 78.41371226364757, "zipcode_area": 55.07925932500156, "intersection_area": 11.439173205343403}, {"zipcode": 94568, "circle_area": 78.41371226364757, "zipcode_area": 43.65419791999973, "intersection_area": 28.56489354717273}, {"zipcode": 94582, "circle_area": 78.41371226364757, "zipcode_area": 35.55952181999996, "intersection_area": 7.554238844994781}, {"zipcode": 94583, "circle_area": 78.41371226364757, "zipcode_area": 56.298534519999095, "intersection_area": 3.3585105685714725}, {"zipcode": 94586, "circle_area": 78.41371226364757, "zipcode_area": 150.08817207499868, "intersection_area": 0.0010952248126692645}, {"zipcode": 94588, "circle_area": 78.41371226364757, "zipcode_area": 87.72413572999996, "intersection_area": 27.433937867743275}]}, {"STATE_CODE": "06", "COUNTY_CODE": "007", "COUNTY": "Butte", "EPA_ID": "0008", "SITE_LATITUDE": "39.76168", "SITE_LONGITUDE": "-121.84047", "zipcode_intersections": [{"zipcode": 95926, "circle_area": 78.41371226364757, "zipcode_area": 21.169586810000432, "intersection_area": 20.951248804771286}, {"zipcode": 95928, "circle_area": 78.41371226364757, "zipcode_area": 401.6826850549992, "intersection_area": 14.596769545757986}, {"zipcode": 95929, "circle_area": 78.41371226364757, "zipcode_area": 0.021311369999908, "intersection_area": 0.021311369999907997}, {"zipcode": 95973, "circle_area": 78.41371226364757, "zipcode_area": 823.7675218199988, "intersection_area": 42.84438254311814}]}, {"STATE_CODE": "06", "COUNTY_CODE": "013", "COUNTY": "Contra Costa", "EPA_ID": "0002", "SITE_LATITUDE": "37.936013", "SITE_LONGITUDE": "-122.026154", "zipcode_intersections": [{"zipcode": 94518, "circle_area": 78.41371226364757, "zipcode_area": 14.710030929999833, "intersection_area": 14.710030929999839}, {"zipcode": 94519, "circle_area": 78.41371226364757, "zipcode_area": 12.04857066000008, "intersection_area": 3.788355846436722}, {"zipcode": 94520, "circle_area": 78.41371226364757, "zipcode_area": 26.309672765001114, "intersection_area": 7.492600929004972}, {"zipcode": 94521, "circle_area": 78.41371226364757, "zipcode_area": 25.707521965000534, "intersection_area": 8.046955983549179}, {"zipcode": 94523, "circle_area": 78.41371226364757, "zipcode_area": 19.134286990000174, "intersection_area": 6.697848999005762}, {"zipcode": 94596, "circle_area": 78.41371226364757, "zipcode_area": 16.081841015000002, "intersection_area": 6.890949945057028}, {"zipcode": 94597, "circle_area": 78.41371226364757, "zipcode_area": 10.755016994999695, "intersection_area": 5.12843581289917}, {"zipcode": 94598, "circle_area": 78.41371226364757, "zipcode_area": 54.71702831000102, "intersection_area": 25.658533817695016}]}, {"STATE_CODE": "06", "COUNTY_CODE": "013", "COUNTY": "Contra Costa", "EPA_ID": "0006", "SITE_LATITUDE": "37.948172", "SITE_LONGITUDE": "-122.364852", "zipcode_intersections": [{"zipcode": 94530, "circle_area": 78.41371226364757, "zipcode_area": 11.491940730000115, "intersection_area": 0.3974979352295549}, {"zipcode": 94801, "circle_area": 78.41371226364757, "zipcode_area": 50.53870911999958, "intersection_area": 35.296336328446614}, {"zipcode": 94803, "circle_area": 78.41371226364757, "zipcode_area": 34.035948104999285, "intersection_area": 0.6683823252272973}, {"zipcode": 94804, "circle_area": 78.41371226364757, "zipcode_area": 24.7104319900001, "intersection_area": 15.821770353282249}, {"zipcode": 94805, "circle_area": 78.41371226364757, "zipcode_area": 4.9514816800006125, "intersection_area": 4.035636438655169}, {"zipcode": 94806, "circle_area": 78.41371226364757, "zipcode_area": 20.913573744999816, "intersection_area": 13.714642680246177}]}, {"STATE_CODE": "06", "COUNTY_CODE": "013", "COUNTY": "Contra Costa", "EPA_ID": "1001", "SITE_LATITUDE": "38.05492", "SITE_LONGITUDE": "-122.233229", "zipcode_intersections": [{"zipcode": 94510, "circle_area": 78.41371226364757, "zipcode_area": 80.46350172500064, "intersection_area": 1.4401142639460158}, {"zipcode": 94525, "circle_area": 78.41371226364757, "zipcode_area": 6.519320475000145, "intersection_area": 6.519320475000153}, {"zipcode": 94547, "circle_area": 78.41371226364757, "zipcode_area": 15.072508630000382, "intersection_area": 2.10543334406067}, {"zipcode": 94553, "circle_area": 78.41371226364757, "zipcode_area": 172.36477660999947, "intersection_area": 3.456471278760062}, {"zipcode": 94572, "circle_area": 78.41371226364757, "zipcode_area": 24.42535609499997, "intersection_area": 20.936959308421194}, {"zipcode": 94590, "circle_area": 78.41371226364757, "zipcode_area": 23.283063095000312, "intersection_area": 12.896043854431023}, {"zipcode": 94591, "circle_area": 78.41371226364757, "zipcode_area": 56.288943099998875, "intersection_area": 11.881407572695736}, {"zipcode": 94592, "circle_area": 78.41371226364757, "zipcode_area": 22.02693670999872, "intersection_area": 2.800097765689811}]}, {"STATE_CODE": "06", "COUNTY_CODE": "013", "COUNTY": "Contra Costa", "EPA_ID": "1002", "SITE_LATITUDE": "38.006311", "SITE_LONGITUDE": "-121.641918", "zipcode_intersections": [{"zipcode": 94511, "circle_area": 78.41371226364757, "zipcode_area": 15.50576931000001, "intersection_area": 15.505769310000026}, {"zipcode": 94513, "circle_area": 78.41371226364757, "zipcode_area": 213.25554506000114, "intersection_area": 19.030493439380145}, {"zipcode": 94561, "circle_area": 78.41371226364757, "zipcode_area": 47.2318093000003, "intersection_area": 21.157245815776626}, {"zipcode": 95219, "circle_area": 78.41371226364757, "zipcode_area": 372.3243830749967, "intersection_area": 15.845390244274114}]}, {"STATE_CODE": "06", "COUNTY_CODE": "013", "COUNTY": "Contra Costa", "EPA_ID": "1004", "SITE_LATITUDE": "37.9604", "SITE_LONGITUDE": "-122.356811", "zipcode_intersections": [{"zipcode": 94530, "circle_area": 78.41371226364757, "zipcode_area": 11.491940730000115, "intersection_area": 0.6688805378163809}, {"zipcode": 94564, "circle_area": 78.41371226364757, "zipcode_area": 18.152286310000875, "intersection_area": 0.030164482364882207}, {"zipcode": 94801, "circle_area": 78.41371226364757, "zipcode_area": 50.53870911999958, "intersection_area": 27.251850441379013}, {"zipcode": 94803, "circle_area": 78.41371226364757, "zipcode_area": 34.035948104999285, "intersection_area": 3.451236005857701}, {"zipcode": 94804, "circle_area": 78.41371226364757, "zipcode_area": 24.7104319900001, "intersection_area": 11.65764993167536}, {"zipcode": 94805, "circle_area": 78.41371226364757, "zipcode_area": 4.9514816800006125, "intersection_area": 4.674386518780437}, {"zipcode": 94806, "circle_area": 78.41371226364757, "zipcode_area": 20.913573744999816, "intersection_area": 18.954513351425177}]}, {"STATE_CODE": "06", "COUNTY_CODE": "013", "COUNTY": "Contra Costa", "EPA_ID": "2001", "SITE_LATITUDE": "38.012816", "SITE_LONGITUDE": "-122.134467", "zipcode_intersections": [{"zipcode": 94510, "circle_area": 78.41371226364757, "zipcode_area": 80.46350172500064, "intersection_area": 6.699094437679869}, {"zipcode": 94553, "circle_area": 78.41371226364757, "zipcode_area": 172.36477660999947, "intersection_area": 59.14630236716843}]}, {"STATE_CODE": "06", "COUNTY_CODE": "013", "COUNTY": "Contra Costa", "EPA_ID": "2007", "SITE_LATITUDE": "37.743649", "SITE_LONGITUDE": "-121.934188", "zipcode_intersections": [{"zipcode": 94506, "circle_area": 78.41371226364757, "zipcode_area": 49.46737061000004, "intersection_area": 0.7757291095784992}, {"zipcode": 94526, "circle_area": 78.41371226364757, "zipcode_area": 34.902370015000585, "intersection_area": 0.46551292209557604}, {"zipcode": 94552, "circle_area": 78.41371226364757, "zipcode_area": 137.12891269500028, "intersection_area": 0.9864509745384816}, {"zipcode": 94568, "circle_area": 78.41371226364757, "zipcode_area": 43.65419791999973, "intersection_area": 20.363133849877432}, {"zipcode": 94582, "circle_area": 78.41371226364757, "zipcode_area": 35.55952181999996, "intersection_area": 30.4407816193144}, {"zipcode": 94583, "circle_area": 78.41371226364757, "zipcode_area": 56.298534519999095, "intersection_area": 23.399533785400987}, {"zipcode": 94588, "circle_area": 78.41371226364757, "zipcode_area": 87.72413572999996, "intersection_area": 1.9825700028419722}]}, {"STATE_CODE": "06", "COUNTY_CODE": "019", "COUNTY": "Fresno", "EPA_ID": "0007", "SITE_LATITUDE": "36.705474", "SITE_LONGITUDE": "-119.741332", "zipcode_intersections": [{"zipcode": 93625, "circle_area": 78.41371226364757, "zipcode_area": 62.55407325999994, "intersection_area": 0.01237755709612108}, {"zipcode": 93701, "circle_area": 78.41371226364757, "zipcode_area": 3.9748272249998524, "intersection_area": 0.012346256125740888}, {"zipcode": 93702, "circle_area": 78.41371226364757, "zipcode_area": 13.51086741000048, "intersection_area": 11.487994668047188}, {"zipcode": 93706, "circle_area": 78.41371226364757, "zipcode_area": 413.9558427149975, "intersection_area": 6.149687996034321}, {"zipcode": 93721, "circle_area": 78.41371226364757, "zipcode_area": 5.332706189999783, "intersection_area": 2.6569732989590436}, {"zipcode": 93725, "circle_area": 78.41371226364757, "zipcode_area": 175.13852426000014, "intersection_area": 45.56467311959844}, {"zipcode": 93727, "circle_area": 78.41371226364757, "zipcode_area": 57.726142524999624, "intersection_area": 12.529659367786289}]}, {"STATE_CODE": "06", "COUNTY_CODE": "019", "COUNTY": "Fresno", "EPA_ID": "0011", "SITE_LATITUDE": "36.78538", "SITE_LONGITUDE": "-119.77321", "zipcode_intersections": [{"zipcode": 93612, "circle_area": 78.41371226364757, "zipcode_area": 17.85233366000015, "intersection_area": 0.870506051016227}, {"zipcode": 93701, "circle_area": 78.41371226364757, "zipcode_area": 3.9748272249998524, "intersection_area": 3.6758609619203853}, {"zipcode": 93702, "circle_area": 78.41371226364757, "zipcode_area": 13.51086741000048, "intersection_area": 6.329134928930892}, {"zipcode": 93703, "circle_area": 78.41371226364757, "zipcode_area": 12.445654185000187, "intersection_area": 12.445654185000189}, {"zipcode": 93704, "circle_area": 78.41371226364757, "zipcode_area": 14.149968020000763, "intersection_area": 12.278508171750806}, {"zipcode": 93705, "circle_area": 78.41371226364757, "zipcode_area": 12.761918935000098, "intersection_area": 3.4895913084737717}, {"zipcode": 93710, "circle_area": 78.41371226364757, "zipcode_area": 16.18756548999962, "intersection_area": 11.40142756216724}, {"zipcode": 93711, "circle_area": 78.41371226364757, "zipcode_area": 30.379097280000146, "intersection_area": 0.6384507546517614}, {"zipcode": 93721, "circle_area": 78.41371226364757, "zipcode_area": 5.332706189999783, "intersection_area": 1.56225838222724}, {"zipcode": 93726, "circle_area": 78.41371226364757, "zipcode_area": 17.002982279999678, "intersection_area": 16.972181728612583}, {"zipcode": 93727, "circle_area": 78.41371226364757, "zipcode_area": 57.726142524999624, "intersection_area": 2.915547672775074}, {"zipcode": 93728, "circle_area": 78.41371226364757, "zipcode_area": 7.951384190000443, "intersection_area": 3.339732387034734}, {"zipcode": 93740, "circle_area": 78.41371226364757, "zipcode_area": 2.2862636949997315, "intersection_area": 2.1952505290865143}]}, {"STATE_CODE": "06", "COUNTY_CODE": "019", "COUNTY": "Fresno", "EPA_ID": "0242", "SITE_LATITUDE": "36.841592", "SITE_LONGITUDE": "-119.874739", "zipcode_intersections": [{"zipcode": 93636, "circle_area": 78.41371226364757, "zipcode_area": 521.1434471400001, "intersection_area": 28.331452576451838}, {"zipcode": 93705, "circle_area": 78.41371226364757, "zipcode_area": 12.761918935000098, "intersection_area": 0.2237288313999187}, {"zipcode": 93711, "circle_area": 78.41371226364757, "zipcode_area": 30.379097280000146, "intersection_area": 18.022937626266327}, {"zipcode": 93722, "circle_area": 78.41371226364757, "zipcode_area": 51.166818389999875, "intersection_area": 26.982893467675552}, {"zipcode": 93723, "circle_area": 78.41371226364757, "zipcode_area": 107.50703507499864, "intersection_area": 4.852699761854114}]}, {"STATE_CODE": "06", "COUNTY_CODE": "019", "COUNTY": "Fresno", "EPA_ID": "2016", "SITE_LATITUDE": "36.710833", "SITE_LONGITUDE": "-119.7775", "zipcode_intersections": [{"zipcode": 93701, "circle_area": 78.41371226364757, "zipcode_area": 3.9748272249998524, "intersection_area": 3.8926416100663923}, {"zipcode": 93702, "circle_area": 78.41371226364757, "zipcode_area": 13.51086741000048, "intersection_area": 11.694767760914585}, {"zipcode": 93703, "circle_area": 78.41371226364757, "zipcode_area": 12.445654185000187, "intersection_area": 0.6292617392098606}, {"zipcode": 93706, "circle_area": 78.41371226364757, "zipcode_area": 413.9558427149975, "intersection_area": 31.692931110099384}, {"zipcode": 93721, "circle_area": 78.41371226364757, "zipcode_area": 5.332706189999783, "intersection_area": 5.3327061899997785}, {"zipcode": 93725, "circle_area": 78.41371226364757, "zipcode_area": 175.13852426000014, "intersection_area": 23.80651687372086}, {"zipcode": 93727, "circle_area": 78.41371226364757, "zipcode_area": 57.726142524999624, "intersection_area": 0.5928913639802394}, {"zipcode": 93728, "circle_area": 78.41371226364757, "zipcode_area": 7.951384190000443, "intersection_area": 0.7719956156562369}]}, {"STATE_CODE": "06", "COUNTY_CODE": "019", "COUNTY": "Fresno", "EPA_ID": "4001", "SITE_LATITUDE": "36.597442", "SITE_LONGITUDE": "-119.503659", "zipcode_intersections": [{"zipcode": 93631, "circle_area": 78.41371226364757, "zipcode_area": 215.8334045800012, "intersection_area": 8.024685343487207}, {"zipcode": 93648, "circle_area": 78.41371226364757, "zipcode_area": 57.70679032499903, "intersection_area": 39.87351075815269}, {"zipcode": 93654, "circle_area": 78.41371226364757, "zipcode_area": 263.7377511000026, "intersection_area": 27.335193828440683}, {"zipcode": 93662, "circle_area": 78.41371226364757, "zipcode_area": 203.49610157499924, "intersection_area": 3.180322333567275}]}, {"STATE_CODE": "06", "COUNTY_CODE": "019", "COUNTY": "Fresno", "EPA_ID": "5001", "SITE_LATITUDE": "36.819449", "SITE_LONGITUDE": "-119.716433", "zipcode_intersections": [{"zipcode": 93611, "circle_area": 78.41371226364757, "zipcode_area": 27.050275189999834, "intersection_area": 18.528593723043628}, {"zipcode": 93612, "circle_area": 78.41371226364757, "zipcode_area": 17.85233366000015, "intersection_area": 17.852333660000177}, {"zipcode": 93619, "circle_area": 78.41371226364757, "zipcode_area": 488.77466497500166, "intersection_area": 7.001494622181847}, {"zipcode": 93703, "circle_area": 78.41371226364757, "zipcode_area": 12.445654185000187, "intersection_area": 0.5791710841837565}, {"zipcode": 93710, "circle_area": 78.41371226364757, "zipcode_area": 16.18756548999962, "intersection_area": 8.38758931987576}, {"zipcode": 93720, "circle_area": 78.41371226364757, "zipcode_area": 27.554781919999343, "intersection_area": 5.840237766286346}, {"zipcode": 93726, "circle_area": 78.41371226364757, "zipcode_area": 17.002982279999678, "intersection_area": 7.584830840658531}, {"zipcode": 93727, "circle_area": 78.41371226364757, "zipcode_area": 57.726142524999624, "intersection_area": 10.353197552417681}, {"zipcode": 93740, "circle_area": 78.41371226364757, "zipcode_area": 2.2862636949997315, "intersection_area": 2.2862636949997297}]}, {"STATE_CODE": "06", "COUNTY_CODE": "023", "COUNTY": "Humboldt", "EPA_ID": "1004", "SITE_LATITUDE": "40.77678", "SITE_LONGITUDE": "-124.17949", "zipcode_intersections": [{"zipcode": 95501, "circle_area": 78.41371226364757, "zipcode_area": 32.4431641750001, "intersection_area": 17.436247545237904}, {"zipcode": 95503, "circle_area": 78.41371226364757, "zipcode_area": 233.50789872999985, "intersection_area": 34.83082577687368}, {"zipcode": 95521, "circle_area": 78.41371226364757, "zipcode_area": 197.8091373149992, "intersection_area": 1.949318131178361}, {"zipcode": 95537, "circle_area": 78.41371226364757, "zipcode_area": 7.5141822350010266, "intersection_area": 4.307566579090694}, {"zipcode": 95551, "circle_area": 78.41371226364757, "zipcode_area": 138.55262103499948, "intersection_area": 0.0017654660772929423}]}, {"STATE_CODE": "06", "COUNTY_CODE": "025", "COUNTY": "Imperial", "EPA_ID": "0005", "SITE_LATITUDE": "32.67618", "SITE_LONGITUDE": "-115.48307", "zipcode_intersections": [{"zipcode": 92231, "circle_area": 78.41371226364757, "zipcode_area": 170.71838858000214, "intersection_area": 38.010920420235244}, {"zipcode": 92249, "circle_area": 78.41371226364757, "zipcode_area": 49.482936414998655, "intersection_area": 11.408984684224109}]}, {"STATE_CODE": "06", "COUNTY_CODE": "025", "COUNTY": "Imperial", "EPA_ID": "1003", "SITE_LATITUDE": "32.79222", "SITE_LONGITUDE": "-115.56306", "zipcode_intersections": [{"zipcode": 92243, "circle_area": 78.41371226364757, "zipcode_area": 282.57138080500107, "intersection_area": 66.15924385454286}, {"zipcode": 92249, "circle_area": 78.41371226364757, "zipcode_area": 49.482936414998655, "intersection_area": 0.015241975146619739}, {"zipcode": 92251, "circle_area": 78.41371226364757, "zipcode_area": 617.3302881749966, "intersection_area": 12.23922643395837}]}, {"STATE_CODE": "06", "COUNTY_CODE": "027", "COUNTY": "Inyo", "EPA_ID": "0002", "SITE_LATITUDE": "37.360684", "SITE_LONGITUDE": "-118.330783", "zipcode_intersections": [{"zipcode": 93514, "circle_area": 78.41371226364757, "zipcode_area": 2670.0602484150127, "intersection_area": 35.689705647912234}]}, {"STATE_CODE": "06", "COUNTY_CODE": "029", "COUNTY": "Kern", "EPA_ID": "0007", "SITE_LATITUDE": "35.345607", "SITE_LONGITUDE": "-118.851825", "zipcode_intersections": [{"zipcode": 93203, "circle_area": 78.41371226364757, "zipcode_area": 440.7508229549981, "intersection_area": 0.10115376768160989}, {"zipcode": 93306, "circle_area": 78.41371226364757, "zipcode_area": 251.8913412250002, "intersection_area": 9.12984258991831}, {"zipcode": 93307, "circle_area": 78.41371226364757, "zipcode_area": 362.93642918999944, "intersection_area": 41.47553917873062}]}, {"STATE_CODE": "06", "COUNTY_CODE": "029", "COUNTY": "Kern", "EPA_ID": "0014", "SITE_LATITUDE": "35.356615", "SITE_LONGITUDE": "-119.062613", "zipcode_intersections": [{"zipcode": 93301, "circle_area": 78.41371226364757, "zipcode_area": 11.352469849999705, "intersection_area": 5.041188044603242}, {"zipcode": 93304, "circle_area": 78.41371226364757, "zipcode_area": 19.191674020000555, "intersection_area": 11.400643756153054}, {"zipcode": 93308, "circle_area": 78.41371226364757, "zipcode_area": 888.809279584998, "intersection_area": 19.29533032460083}, {"zipcode": 93309, "circle_area": 78.41371226364757, "zipcode_area": 27.23466467999954, "intersection_area": 27.234664679999515}, {"zipcode": 93311, "circle_area": 78.41371226364757, "zipcode_area": 547.7399744950037, "intersection_area": 6.431640065819507}, {"zipcode": 93312, "circle_area": 78.41371226364757, "zipcode_area": 36.41417615500029, "intersection_area": 4.801953132949451}, {"zipcode": 93313, "circle_area": 78.41371226364757, "zipcode_area": 257.861389380004, "intersection_area": 4.208292259521474}]}, {"STATE_CODE": "06", "COUNTY_CODE": "029", "COUNTY": "Kern", "EPA_ID": "2012", "SITE_LATITUDE": "35.331612", "SITE_LONGITUDE": "-118.999961", "zipcode_intersections": [{"zipcode": 93301, "circle_area": 78.41371226364757, "zipcode_area": 11.352469849999705, "intersection_area": 2.519712463577444}, {"zipcode": 93304, "circle_area": 78.41371226364757, "zipcode_area": 19.191674020000555, "intersection_area": 18.838668441713704}, {"zipcode": 93305, "circle_area": 78.41371226364757, "zipcode_area": 14.86575569000008, "intersection_area": 3.2628264584485036}, {"zipcode": 93307, "circle_area": 78.41371226364757, "zipcode_area": 362.93642918999944, "intersection_area": 48.042561182170516}, {"zipcode": 93309, "circle_area": 78.41371226364757, "zipcode_area": 27.23466467999954, "intersection_area": 3.664492234550244}, {"zipcode": 93313, "circle_area": 78.41371226364757, "zipcode_area": 257.861389380004, "intersection_area": 2.085451483187133}]}, {"STATE_CODE": "06", "COUNTY_CODE": "029", "COUNTY": "Kern", "EPA_ID": "6001", "SITE_LATITUDE": "35.503587", "SITE_LONGITUDE": "-119.272606", "zipcode_intersections": [{"zipcode": 93263, "circle_area": 78.41371226364757, "zipcode_area": 237.30487363000097, "intersection_area": 69.95136147578815}, {"zipcode": 93280, "circle_area": 78.41371226364757, "zipcode_area": 814.5983878050034, "intersection_area": 2.022252164139324}, {"zipcode": 93308, "circle_area": 78.41371226364757, "zipcode_area": 888.809279584998, "intersection_area": 6.440098623719877}]}, {"STATE_CODE": "06", "COUNTY_CODE": "031", "COUNTY": "Kings", "EPA_ID": "1004", "SITE_LATITUDE": "36.31567", "SITE_LONGITUDE": "-119.643447", "zipcode_intersections": [{"zipcode": 93202, "circle_area": 78.41371226364757, "zipcode_area": 3.9937277349999594, "intersection_area": 0.016711568799141426}, {"zipcode": 93230, "circle_area": 78.41371226364757, "zipcode_area": 670.6999245300021, "intersection_area": 78.39700069484851}]}, {"STATE_CODE": "06", "COUNTY_CODE": "037", "COUNTY": "Los Angeles", "EPA_ID": "0002", "SITE_LATITUDE": "34.1365", "SITE_LONGITUDE": "-117.92391", "zipcode_intersections": [{"zipcode": 91008, "circle_area": 78.41371226364757, "zipcode_area": 4.8782801599997425, "intersection_area": 2.6997002946230557}, {"zipcode": 91010, "circle_area": 78.41371226364757, "zipcode_area": 16.39160435000012, "intersection_area": 11.601756367843027}, {"zipcode": 91702, "circle_area": 78.41371226364757, "zipcode_area": 168.0951485149991, "intersection_area": 27.809045797602877}, {"zipcode": 91706, "circle_area": 78.41371226364757, "zipcode_area": 36.69943724000032, "intersection_area": 12.112275495562532}, {"zipcode": 91722, "circle_area": 78.41371226364757, "zipcode_area": 10.440334135000223, "intersection_area": 7.39260851297658}, {"zipcode": 91723, "circle_area": 78.41371226364757, "zipcode_area": 5.927362299999422, "intersection_area": 0.12355635602989541}, {"zipcode": 91740, "circle_area": 78.41371226364757, "zipcode_area": 12.719717979999922, "intersection_area": 0.8191773379142777}, {"zipcode": 91741, "circle_area": 78.41371226364757, "zipcode_area": 51.93143982999987, "intersection_area": 4.081985472812251}, {"zipcode": 91790, "circle_area": 78.41371226364757, "zipcode_area": 14.626101565000093, "intersection_area": 0.1997436414028222}, {"zipcode": 91791, "circle_area": 78.41371226364757, "zipcode_area": 16.851574570000754, "intersection_area": 0.115850913511741}]}, {"STATE_CODE": "06", "COUNTY_CODE": "037", "COUNTY": "Los Angeles", "EPA_ID": "0016", "SITE_LATITUDE": "34.14435", "SITE_LONGITUDE": "-117.85036", "zipcode_intersections": [{"zipcode": 91702, "circle_area": 78.41371226364757, "zipcode_area": 168.0951485149991, "intersection_area": 15.926043100716232}, {"zipcode": 91722, "circle_area": 78.41371226364757, "zipcode_area": 10.440334135000223, "intersection_area": 0.6390096473386484}, {"zipcode": 91724, "circle_area": 78.41371226364757, "zipcode_area": 15.781847345000418, "intersection_area": 3.669382343989456}, {"zipcode": 91740, "circle_area": 78.41371226364757, "zipcode_area": 12.719717979999922, "intersection_area": 12.71968753395481}, {"zipcode": 91741, "circle_area": 78.41371226364757, "zipcode_area": 51.93143982999987, "intersection_area": 36.58882856938145}, {"zipcode": 91773, "circle_area": 78.41371226364757, "zipcode_area": 38.88508712000027, "intersection_area": 7.854175551958045}]}, {"STATE_CODE": "06", "COUNTY_CODE": "037", "COUNTY": "Los Angeles", "EPA_ID": "0113", "SITE_LATITUDE": "34.05111", "SITE_LONGITUDE": "-118.45636", "zipcode_intersections": [{"zipcode": 90024, "circle_area": 78.41371226364757, "zipcode_area": 7.521956510000104, "intersection_area": 7.521956510000107}, {"zipcode": 90025, "circle_area": 78.41371226364757, "zipcode_area": 6.454341094999855, "intersection_area": 6.454341094999852}, {"zipcode": 90034, "circle_area": 78.41371226364757, "zipcode_area": 7.863696474999915, "intersection_area": 1.499029306169367}, {"zipcode": 90035, "circle_area": 78.41371226364757, "zipcode_area": 5.755488899999753, "intersection_area": 0.1544795508804235}, {"zipcode": 90049, "circle_area": 78.41371226364757, "zipcode_area": 37.88111619000039, "intersection_area": 18.314391000112515}, {"zipcode": 90064, "circle_area": 78.41371226364757, "zipcode_area": 9.420148769999985, "intersection_area": 8.180634589212396}, {"zipcode": 90066, "circle_area": 78.41371226364757, "zipcode_area": 12.293209184999698, "intersection_area": 4.461586085897754}, {"zipcode": 90067, "circle_area": 78.41371226364757, "zipcode_area": 1.087906255000052, "intersection_area": 1.0861422234423177}, {"zipcode": 90073, "circle_area": 78.41371226364757, "zipcode_area": 1.3566906999998272, "intersection_area": 1.3566906999998283}, {"zipcode": 90077, "circle_area": 78.41371226364757, "zipcode_area": 18.717638099999878, "intersection_area": 6.957317689444856}, {"zipcode": 90095, "circle_area": 78.41371226364757, "zipcode_area": 1.0109116149998858, "intersection_area": 1.0109116149998858}, {"zipcode": 90210, "circle_area": 78.41371226364757, "zipcode_area": 27.333554720000443, "intersection_area": 2.370011872068554}, {"zipcode": 90212, "circle_area": 78.41371226364757, "zipcode_area": 2.3943273150002997, "intersection_area": 0.5763302108307661}, {"zipcode": 90272, "circle_area": 78.41371226364757, "zipcode_area": 61.62696038500031, "intersection_area": 1.6018790361072301}, {"zipcode": 90291, "circle_area": 78.41371226364757, "zipcode_area": 7.074947139999686, "intersection_area": 0.8878184688167547}, {"zipcode": 90401, "circle_area": 78.41371226364757, "zipcode_area": 1.907354895000547, "intersection_area": 0.832345357033503}, {"zipcode": 90402, "circle_area": 78.41371226364757, "zipcode_area": 5.482759084999578, "intersection_area": 2.3793098169856384}, {"zipcode": 90403, "circle_area": 78.41371226364757, "zipcode_area": 3.810349514999932, "intersection_area": 2.7130351300212237}, {"zipcode": 90404, "circle_area": 78.41371226364757, "zipcode_area": 4.983105634999934, "intersection_area": 4.983105634999939}, {"zipcode": 90405, "circle_area": 78.41371226364757, "zipcode_area": 7.904076149999235, "intersection_area": 5.0723963716245075}]}, {"STATE_CODE": "06", "COUNTY_CODE": "037", "COUNTY": "Los Angeles", "EPA_ID": "1103", "SITE_LATITUDE": "34.06659", "SITE_LONGITUDE": "-118.22688", "zipcode_intersections": [{"zipcode": 90011, "circle_area": 78.41371226364757, "zipcode_area": 10.841429114999952, "intersection_area": 0.19117577843108297}, {"zipcode": 90012, "circle_area": 78.41371226364757, "zipcode_area": 9.327250904999927, "intersection_area": 9.327250904999923}, {"zipcode": 90013, "circle_area": 78.41371226364757, "zipcode_area": 1.809944085000248, "intersection_area": 1.8099440850002482}, {"zipcode": 90014, "circle_area": 78.41371226364757, "zipcode_area": 0.7570395999999813, "intersection_area": 0.7570395999999813}, {"zipcode": 90015, "circle_area": 78.41371226364757, "zipcode_area": 4.281545014999983, "intersection_area": 2.550824582754179}, {"zipcode": 90017, "circle_area": 78.41371226364757, "zipcode_area": 1.7879718249999432, "intersection_area": 1.787971824999945}, {"zipcode": 90021, "circle_area": 78.41371226364757, "zipcode_area": 5.026870295000133, "intersection_area": 5.018392526620632}, {"zipcode": 90023, "circle_area": 78.41371226364757, "zipcode_area": 11.053969720000469, "intersection_area": 4.647536148054111}, {"zipcode": 90026, "circle_area": 78.41371226364757, "zipcode_area": 10.267336144999964, "intersection_area": 8.10286457848763}, {"zipcode": 90031, "circle_area": 78.41371226364757, "zipcode_area": 9.01812888999954, "intersection_area": 9.013879499230512}, {"zipcode": 90032, "circle_area": 78.41371226364757, "zipcode_area": 12.226909104999148, "intersection_area": 5.545029843769038}, {"zipcode": 90033, "circle_area": 78.41371226364757, "zipcode_area": 8.377695740000386, "intersection_area": 8.377695740000384}, {"zipcode": 90039, "circle_area": 78.41371226364757, "zipcode_area": 9.676728224999897, "intersection_area": 3.442286873090335}, {"zipcode": 90042, "circle_area": 78.41371226364757, "zipcode_area": 11.519667310000218, "intersection_area": 1.6465500088080747}, {"zipcode": 90057, "circle_area": 78.41371226364757, "zipcode_area": 2.2590989000001853, "intersection_area": 0.9576800799426941}, {"zipcode": 90058, "circle_area": 78.41371226364757, "zipcode_area": 15.057003129999357, "intersection_area": 0.279853684906255}, {"zipcode": 90063, "circle_area": 78.41371226364757, "zipcode_area": 8.306460675000015, "intersection_area": 5.06403927152871}, {"zipcode": 90065, "circle_area": 78.41371226364757, "zipcode_area": 14.073102414999877, "intersection_area": 9.52783011802388}, {"zipcode": 90071, "circle_area": 78.41371226364757, "zipcode_area": 0.3408883650000132, "intersection_area": 0.3408883650000132}, {"zipcode": 90079, "circle_area": 78.41371226364757, "zipcode_area": 0.02497874999991833, "intersection_area": 0.02497874999991833}]}, {"STATE_CODE": "06", "COUNTY_CODE": "037", "COUNTY": "Los Angeles", "EPA_ID": "1201", "SITE_LATITUDE": "34.19925", "SITE_LONGITUDE": "-118.53276", "zipcode_intersections": [{"zipcode": 91306, "circle_area": 78.41371226364757, "zipcode_area": 10.594521470000226, "intersection_area": 7.130100905341536}, {"zipcode": 91311, "circle_area": 78.41371226364757, "zipcode_area": 84.94048587999949, "intersection_area": 0.06250502443580967}, {"zipcode": 91316, "circle_area": 78.41371226364757, "zipcode_area": 14.413351569999485, "intersection_area": 8.783012925433768}, {"zipcode": 91324, "circle_area": 78.41371226364757, "zipcode_area": 10.845525115000655, "intersection_area": 7.454139416200269}, {"zipcode": 91325, "circle_area": 78.41371226364757, "zipcode_area": 12.216183704999978, "intersection_area": 8.750410466931003}, {"zipcode": 91330, "circle_area": 78.41371226364757, "zipcode_area": 1.2653271599999676, "intersection_area": 0.9137630762987434}, {"zipcode": 91335, "circle_area": 78.41371226364757, "zipcode_area": 16.713757325000064, "intersection_area": 16.71375732500007}, {"zipcode": 91343, "circle_area": 78.41371226364757, "zipcode_area": 15.039556610000556, "intersection_area": 1.53640344885295}, {"zipcode": 91356, "circle_area": 78.41371226364757, "zipcode_area": 18.567733325000713, "intersection_area": 10.092718093929827}, {"zipcode": 91364, "circle_area": 78.41371226364757, "zipcode_area": 19.08953021000108, "intersection_area": 0.9155863862648915}, {"zipcode": 91367, "circle_area": 78.41371226364757, "zipcode_area": 18.993071350000015, "intersection_area": 2.1508029988038913}, {"zipcode": 91406, "circle_area": 78.41371226364757, "zipcode_area": 20.53509885499946, "intersection_area": 12.12860607642518}, {"zipcode": 91436, "circle_area": 78.41371226364757, "zipcode_area": 13.355889205000258, "intersection_area": 1.2716625128728813}]}, {"STATE_CODE": "06", "COUNTY_CODE": "037", "COUNTY": "Los Angeles", "EPA_ID": "1302", "SITE_LATITUDE": "33.901389", "SITE_LONGITUDE": "-118.205", "zipcode_intersections": [{"zipcode": 90002, "circle_area": 78.41371226364757, "zipcode_area": 7.558984969999519, "intersection_area": 0.4464030807995038}, {"zipcode": 90059, "circle_area": 78.41371226364757, "zipcode_area": 8.02560701499983, "intersection_area": 3.11678257497947}, {"zipcode": 90220, "circle_area": 78.41371226364757, "zipcode_area": 17.612126930000084, "intersection_area": 13.695627077888314}, {"zipcode": 90221, "circle_area": 78.41371226364757, "zipcode_area": 13.768762059999949, "intersection_area": 12.740467437375816}, {"zipcode": 90222, "circle_area": 78.41371226364757, "zipcode_area": 6.861402570000222, "intersection_area": 6.3733103966658575}, {"zipcode": 90242, "circle_area": 78.41371226364757, "zipcode_area": 11.452450214999148, "intersection_area": 0.5717177778242468}, {"zipcode": 90262, "circle_area": 78.41371226364757, "zipcode_area": 12.050674315000412, "intersection_area": 12.050674315000435}, {"zipcode": 90280, "circle_area": 78.41371226364757, "zipcode_area": 19.055411355000185, "intersection_area": 9.621089094524358}, {"zipcode": 90723, "circle_area": 78.41371226364757, "zipcode_area": 12.261869054999654, "intersection_area": 8.92783993487366}, {"zipcode": 90746, "circle_area": 78.41371226364757, "zipcode_area": 14.731658150000326, "intersection_area": 0.27548009707182175}, {"zipcode": 90805, "circle_area": 78.41371226364757, "zipcode_area": 19.138583940000583, "intersection_area": 10.594320476644603}]}, {"STATE_CODE": "06", "COUNTY_CODE": "037", "COUNTY": "Los Angeles", "EPA_ID": "1602", "SITE_LATITUDE": "34.01029", "SITE_LONGITUDE": "-118.0685", "zipcode_intersections": [{"zipcode": 90601, "circle_area": 78.41371226364757, "zipcode_area": 27.156187549999878, "intersection_area": 19.910882799850917}, {"zipcode": 90602, "circle_area": 78.41371226364757, "zipcode_area": 9.484952930000158, "intersection_area": 1.3113268493997214}, {"zipcode": 90606, "circle_area": 78.41371226364757, "zipcode_area": 9.99012153999968, "intersection_area": 9.623249650767352}, {"zipcode": 90640, "circle_area": 78.41371226364757, "zipcode_area": 21.083763214999365, "intersection_area": 11.915466280574421}, {"zipcode": 90660, "circle_area": 78.41371226364757, "zipcode_area": 20.69337035500038, "intersection_area": 15.429420361915543}, {"zipcode": 90670, "circle_area": 78.41371226364757, "zipcode_area": 21.11157523000011, "intersection_area": 1.1661358700836686}, {"zipcode": 91733, "circle_area": 78.41371226364757, "zipcode_area": 17.9313604949994, "intersection_area": 12.632739310726514}, {"zipcode": 91746, "circle_area": 78.41371226364757, "zipcode_area": 15.17438648499996, "intersection_area": 0.11929719799295654}, {"zipcode": 91755, "circle_area": 78.41371226364757, "zipcode_area": 8.094193959999822, "intersection_area": 1.4147456256640725}, {"zipcode": 91770, "circle_area": 78.41371226364757, "zipcode_area": 16.704156494999907, "intersection_area": 4.890448316672631}]}, {"STATE_CODE": "06", "COUNTY_CODE": "037", "COUNTY": "Los Angeles", "EPA_ID": "1701", "SITE_LATITUDE": "34.06703", "SITE_LONGITUDE": "-117.7514", "zipcode_intersections": [{"zipcode": 91709, "circle_area": 78.41371226364757, "zipcode_area": 113.32109515999905, "intersection_area": 1.3199694422393573}, {"zipcode": 91710, "circle_area": 78.41371226364757, "zipcode_area": 55.68692545999943, "intersection_area": 3.0732052491941646}, {"zipcode": 91711, "circle_area": 78.41371226364757, "zipcode_area": 38.15205333000025, "intersection_area": 7.138147225071464}, {"zipcode": 91750, "circle_area": 78.41371226364757, "zipcode_area": 47.379751020000484, "intersection_area": 7.374310208891339}, {"zipcode": 91762, "circle_area": 78.41371226364757, "zipcode_area": 36.12735538500015, "intersection_area": 0.010975502405740419}, {"zipcode": 91763, "circle_area": 78.41371226364757, "zipcode_area": 13.406917119999754, "intersection_area": 4.547458604499615}, {"zipcode": 91765, "circle_area": 78.41371226364757, "zipcode_area": 46.936153870001455, "intersection_area": 0.06387095276314415}, {"zipcode": 91766, "circle_area": 78.41371226364757, "zipcode_area": 25.548291235000658, "intersection_area": 24.724322047854074}, {"zipcode": 91767, "circle_area": 78.41371226364757, "zipcode_area": 14.393329124999916, "intersection_area": 14.393329124999918}, {"zipcode": 91768, "circle_area": 78.41371226364757, "zipcode_area": 20.741049099999334, "intersection_area": 12.76034399847256}, {"zipcode": 91773, "circle_area": 78.41371226364757, "zipcode_area": 38.88508712000027, "intersection_area": 3.0077799072562974}]}, {"STATE_CODE": "06", "COUNTY_CODE": "037", "COUNTY": "Los Angeles", "EPA_ID": "2005", "SITE_LATITUDE": "34.1326", "SITE_LONGITUDE": "-118.1272", "zipcode_intersections": [{"zipcode": 90032, "circle_area": 78.41371226364757, "zipcode_area": 12.226909104999148, "intersection_area": 0.21712281277786055}, {"zipcode": 90042, "circle_area": 78.41371226364757, "zipcode_area": 11.519667310000218, "intersection_area": 0.7032652875612282}, {"zipcode": 91001, "circle_area": 78.41371226364757, "zipcode_area": 21.013083459998352, "intersection_area": 1.3582557817107337}, {"zipcode": 91030, "circle_area": 78.41371226364757, "zipcode_area": 8.718236685000344, "intersection_area": 7.437912414326016}, {"zipcode": 91101, "circle_area": 78.41371226364757, "zipcode_area": 3.215951794999917, "intersection_area": 3.2159517949999112}, {"zipcode": 91103, "circle_area": 78.41371226364757, "zipcode_area": 11.676170760000241, "intersection_area": 5.310143325878002}, {"zipcode": 91104, "circle_area": 78.41371226364757, "zipcode_area": 9.560271225000024, "intersection_area": 9.477896079840061}, {"zipcode": 91105, "circle_area": 78.41371226364757, "zipcode_area": 10.704928085000013, "intersection_area": 7.491373316436802}, {"zipcode": 91106, "circle_area": 78.41371226364757, "zipcode_area": 6.8808065700002405, "intersection_area": 6.880806570000245}, {"zipcode": 91107, "circle_area": 78.41371226364757, "zipcode_area": 21.58110161499993, "intersection_area": 9.456236779770888}, {"zipcode": 91108, "circle_area": 78.41371226364757, "zipcode_area": 9.607739254999329, "intersection_area": 9.607739254999316}, {"zipcode": 91125, "circle_area": 78.41371226364757, "zipcode_area": 0.4485604399998247, "intersection_area": 0.44856043999982464}, {"zipcode": 91775, "circle_area": 78.41371226364757, "zipcode_area": 7.8799856300001325, "intersection_area": 5.56461568822992}, {"zipcode": 91776, "circle_area": 78.41371226364757, "zipcode_area": 8.453621685000611, "intersection_area": 2.548572363589001}, {"zipcode": 91801, "circle_area": 78.41371226364757, "zipcode_area": 10.94017245999926, "intersection_area": 8.138975540141258}, {"zipcode": 91803, "circle_area": 78.41371226364757, "zipcode_area": 8.247934910000172, "intersection_area": 0.5562848133868585}]}, {"STATE_CODE": "06", "COUNTY_CODE": "037", "COUNTY": "Los Angeles", "EPA_ID": "4008", "SITE_LATITUDE": "33.859662", "SITE_LONGITUDE": "-118.200707", "zipcode_intersections": [{"zipcode": 90220, "circle_area": 78.41371226364757, "zipcode_area": 17.612126930000084, "intersection_area": 11.876402163059245}, {"zipcode": 90221, "circle_area": 78.41371226364757, "zipcode_area": 13.768762059999949, "intersection_area": 12.945425469199153}, {"zipcode": 90222, "circle_area": 78.41371226364757, "zipcode_area": 6.861402570000222, "intersection_area": 0.049593598255202306}, {"zipcode": 90262, "circle_area": 78.41371226364757, "zipcode_area": 12.050674315000412, "intersection_area": 0.3412086354080519}, {"zipcode": 90712, "circle_area": 78.41371226364757, "zipcode_area": 10.689713820000081, "intersection_area": 3.0137114170563337}, {"zipcode": 90723, "circle_area": 78.41371226364757, "zipcode_area": 12.261869054999654, "intersection_area": 4.5519950523629396}, {"zipcode": 90745, "circle_area": 78.41371226364757, "zipcode_area": 20.986066974999645, "intersection_area": 0.46533912639770786}, {"zipcode": 90746, "circle_area": 78.41371226364757, "zipcode_area": 14.731658150000326, "intersection_area": 4.39004744610668}, {"zipcode": 90747, "circle_area": 78.41371226364757, "zipcode_area": 0.05405978000006176, "intersection_area": 0.0059245175356132836}, {"zipcode": 90755, "circle_area": 78.41371226364757, "zipcode_area": 5.483424085000351, "intersection_area": 0.4334088464495126}, {"zipcode": 90805, "circle_area": 78.41371226364757, "zipcode_area": 19.138583940000583, "intersection_area": 18.465258931888147}, {"zipcode": 90806, "circle_area": 78.41371226364757, "zipcode_area": 12.53615894499988, "intersection_area": 1.8663353149892645}, {"zipcode": 90807, "circle_area": 78.41371226364757, "zipcode_area": 11.188079845000122, "intersection_area": 10.254228240870093}, {"zipcode": 90810, "circle_area": 78.41371226364757, "zipcode_area": 17.054359474999735, "intersection_area": 9.754833504069996}]}, {"STATE_CODE": "06", "COUNTY_CODE": "037", "COUNTY": "Los Angeles", "EPA_ID": "4009", "SITE_LATITUDE": "33.793713", "SITE_LONGITUDE": "-118.171019", "zipcode_intersections": [{"zipcode": 90712, "circle_area": 78.41371226364757, "zipcode_area": 10.689713820000081, "intersection_area": 2.5432496026867666}, {"zipcode": 90755, "circle_area": 78.41371226364757, "zipcode_area": 5.483424085000351, "intersection_area": 5.483424085000346}, {"zipcode": 90802, "circle_area": 78.41371226364757, "zipcode_area": 35.23131445500241, "intersection_area": 10.66725766527003}, {"zipcode": 90803, "circle_area": 78.41371226364757, "zipcode_area": 21.859798754998806, "intersection_area": 6.5782240737804925}, {"zipcode": 90804, "circle_area": 78.41371226364757, "zipcode_area": 5.445387005000199, "intersection_area": 5.399306084569099}, {"zipcode": 90806, "circle_area": 78.41371226364757, "zipcode_area": 12.53615894499988, "intersection_area": 12.5280718271716}, {"zipcode": 90807, "circle_area": 78.41371226364757, "zipcode_area": 11.188079845000122, "intersection_area": 9.22866351301152}, {"zipcode": 90808, "circle_area": 78.41371226364757, "zipcode_area": 17.572205565000154, "intersection_area": 2.9525828657671}, {"zipcode": 90810, "circle_area": 78.41371226364757, "zipcode_area": 17.054359474999735, "intersection_area": 4.573940548992761}, {"zipcode": 90813, "circle_area": 78.41371226364757, "zipcode_area": 7.9996450900001905, "intersection_area": 6.970488088872458}, {"zipcode": 90814, "circle_area": 78.41371226364757, "zipcode_area": 3.359562735000529, "intersection_area": 2.8379276071057564}, {"zipcode": 90815, "circle_area": 78.41371226364757, "zipcode_area": 18.28570722999937, "intersection_area": 7.006043165744387}, {"zipcode": 90831, "circle_area": 78.41371226364757, "zipcode_area": 0.05685210999993373, "intersection_area": 0.05685210999993376}, {"zipcode": 90840, "circle_area": 78.41371226364757, "zipcode_area": 0.10678969000004918, "intersection_area": 0.02715686918762622}]}, {"STATE_CODE": "06", "COUNTY_CODE": "037", "COUNTY": "Los Angeles", "EPA_ID": "4010", "SITE_LATITUDE": "34.181977", "SITE_LONGITUDE": "-118.363036", "zipcode_intersections": [{"zipcode": 90068, "circle_area": 78.41371226364757, "zipcode_area": 20.697454104999828, "intersection_area": 1.7816137418282316}, {"zipcode": 91352, "circle_area": 78.41371226364757, "zipcode_area": 29.86922932500067, "intersection_area": 9.495106566188586}, {"zipcode": 91501, "circle_area": 78.41371226364757, "zipcode_area": 6.928891455000017, "intersection_area": 0.023927205248720378}, {"zipcode": 91502, "circle_area": 78.41371226364757, "zipcode_area": 3.42862378000029, "intersection_area": 0.9738299238784877}, {"zipcode": 91504, "circle_area": 78.41371226364757, "zipcode_area": 23.651841365000433, "intersection_area": 8.897536487971177}, {"zipcode": 91505, "circle_area": 78.41371226364757, "zipcode_area": 13.587279134999479, "intersection_area": 13.587279134999497}, {"zipcode": 91506, "circle_area": 78.41371226364757, "zipcode_area": 6.136981844999604, "intersection_area": 4.943772065850274}, {"zipcode": 91601, "circle_area": 78.41371226364757, "zipcode_area": 6.677291040000073, "intersection_area": 6.677291040000068}, {"zipcode": 91602, "circle_area": 78.41371226364757, "zipcode_area": 5.224524334999922, "intersection_area": 5.224524334999916}, {"zipcode": 91604, "circle_area": 78.41371226364757, "zipcode_area": 12.184134069999526, "intersection_area": 3.948740746713602}, {"zipcode": 91605, "circle_area": 78.41371226364757, "zipcode_area": 13.643106905000542, "intersection_area": 7.932628451699111}, {"zipcode": 91606, "circle_area": 78.41371226364757, "zipcode_area": 8.440774885000197, "intersection_area": 7.757939231896845}, {"zipcode": 91607, "circle_area": 78.41371226364757, "zipcode_area": 6.310679034999671, "intersection_area": 5.708956605344153}, {"zipcode": 91608, "circle_area": 78.41371226364757, "zipcode_area": 1.539446655000089, "intersection_area": 1.460566727028955}]}, {"STATE_CODE": "06", "COUNTY_CODE": "037", "COUNTY": "Los Angeles", "EPA_ID": "5005", "SITE_LATITUDE": "33.95507", "SITE_LONGITUDE": "-118.43049", "zipcode_intersections": [{"zipcode": 90045, "circle_area": 78.41371226364757, "zipcode_area": 27.178830595001028, "intersection_area": 21.975143612082885}, {"zipcode": 90066, "circle_area": 78.41371226364757, "zipcode_area": 12.293209184999698, "intersection_area": 6.578503606129815}, {"zipcode": 90094, "circle_area": 78.41371226364757, "zipcode_area": 1.8124833049995517, "intersection_area": 1.8124833049995506}, {"zipcode": 90230, "circle_area": 78.41371226364757, "zipcode_area": 11.574864025000139, "intersection_area": 3.518813001428481}, {"zipcode": 90245, "circle_area": 78.41371226364757, "zipcode_area": 13.507196174999377, "intersection_area": 6.807303690565696}, {"zipcode": 90266, "circle_area": 78.41371226364757, "zipcode_area": 13.004656650001394, "intersection_area": 1.1103015182635667}, {"zipcode": 90291, "circle_area": 78.41371226364757, "zipcode_area": 7.074947139999686, "intersection_area": 2.6895577258071124}, {"zipcode": 90292, "circle_area": 78.41371226364757, "zipcode_area": 8.083574225000245, "intersection_area": 8.083574225000245}, {"zipcode": 90293, "circle_area": 78.41371226364757, "zipcode_area": 10.821614540000224, "intersection_area": 10.82161454000022}]}, {"STATE_CODE": "06", "COUNTY_CODE": "037", "COUNTY": "Los Angeles", "EPA_ID": "6012", "SITE_LATITUDE": "34.38344", "SITE_LONGITUDE": "-118.5284", "zipcode_intersections": [{"zipcode": 91321, "circle_area": 78.41371226364757, "zipcode_area": 67.69798604000083, "intersection_area": 36.057104504549464}, {"zipcode": 91342, "circle_area": 78.41371226364757, "zipcode_area": 115.36192119499978, "intersection_area": 0.05490710959432753}, {"zipcode": 91350, "circle_area": 78.41371226364757, "zipcode_area": 40.36101499999971, "intersection_area": 17.592562691159095}, {"zipcode": 91351, "circle_area": 78.41371226364757, "zipcode_area": 22.06790823499978, "intersection_area": 1.7801549240560233}, {"zipcode": 91354, "circle_area": 78.41371226364757, "zipcode_area": 18.620571509999696, "intersection_area": 0.43871757090261576}, {"zipcode": 91355, "circle_area": 78.41371226364757, "zipcode_area": 34.10743158499898, "intersection_area": 12.940126145022123}, {"zipcode": 91381, "circle_area": 78.41371226364757, "zipcode_area": 100.37650932500068, "intersection_area": 9.550139318363586}]}, {"STATE_CODE": "06", "COUNTY_CODE": "037", "COUNTY": "Los Angeles", "EPA_ID": "9033", "SITE_LATITUDE": "34.669739", "SITE_LONGITUDE": "-118.130511", "zipcode_intersections": [{"zipcode": 93534, "circle_area": 78.41371226364757, "zipcode_area": 49.23078139499899, "intersection_area": 23.908816815480087}, {"zipcode": 93535, "circle_area": 78.41371226364757, "zipcode_area": 609.1934685149977, "intersection_area": 27.465448400608135}, {"zipcode": 93536, "circle_area": 78.41371226364757, "zipcode_area": 650.7703936399975, "intersection_area": 6.552571420876682}, {"zipcode": 93550, "circle_area": 78.41371226364757, "zipcode_area": 660.3127549300028, "intersection_area": 12.24240366359084}, {"zipcode": 93551, "circle_area": 78.41371226364757, "zipcode_area": 216.18659200500014, "intersection_area": 8.244471963091895}]}, {"STATE_CODE": "06", "COUNTY_CODE": "039", "COUNTY": "Madera", "EPA_ID": "0004", "SITE_LATITUDE": "36.867125", "SITE_LONGITUDE": "-120.010158", "zipcode_intersections": [{"zipcode": 93636, "circle_area": 78.41371226364757, "zipcode_area": 521.1434471400001, "intersection_area": 8.676850662141568}, {"zipcode": 93637, "circle_area": 78.41371226364757, "zipcode_area": 734.5303315699999, "intersection_area": 64.75432775053153}, {"zipcode": 93723, "circle_area": 78.41371226364757, "zipcode_area": 107.50703507499864, "intersection_area": 4.982533850974555}]}, {"STATE_CODE": "06", "COUNTY_CODE": "041", "COUNTY": "Marin", "EPA_ID": "0001", "SITE_LATITUDE": "37.97231", "SITE_LONGITUDE": "-122.520004", "zipcode_intersections": [{"zipcode": 94901, "circle_area": 78.41371226364757, "zipcode_area": 43.767657019998296, "intersection_area": 33.48894182164607}, {"zipcode": 94903, "circle_area": 78.41371226364757, "zipcode_area": 54.64873450000129, "intersection_area": 15.734908972941321}, {"zipcode": 94904, "circle_area": 78.41371226364757, "zipcode_area": 13.400441564999783, "intersection_area": 8.137879731914405}, {"zipcode": 94925, "circle_area": 78.41371226364757, "zipcode_area": 11.143660324999763, "intersection_area": 5.404021561033043}, {"zipcode": 94939, "circle_area": 78.41371226364757, "zipcode_area": 6.758226575000373, "intersection_area": 5.74286464131122}, {"zipcode": 94960, "circle_area": 78.41371226364757, "zipcode_area": 15.618448405000121, "intersection_area": 3.864103420573915}, {"zipcode": 94964, "circle_area": 78.41371226364757, "zipcode_area": 2.1654278250003576, "intersection_area": 1.6744740381625882}]}, {"STATE_CODE": "06", "COUNTY_CODE": "047", "COUNTY": "Merced", "EPA_ID": "0003", "SITE_LATITUDE": "37.281853", "SITE_LONGITUDE": "-120.433671", "zipcode_intersections": [{"zipcode": 95340, "circle_area": 78.41371226364757, "zipcode_area": 138.81299402000064, "intersection_area": 30.172373612769793}, {"zipcode": 95341, "circle_area": 78.41371226364757, "zipcode_area": 389.8341922299986, "intersection_area": 48.13348815373696}, {"zipcode": 95348, "circle_area": 78.41371226364757, "zipcode_area": 155.85446822500052, "intersection_area": 0.10785049714080959}]}, {"STATE_CODE": "06", "COUNTY_CODE": "053", "COUNTY": "Monterey", "EPA_ID": "1003", "SITE_LATITUDE": "36.694261", "SITE_LONGITUDE": "-121.623271", "zipcode_intersections": [{"zipcode": 93901, "circle_area": 78.41371226364757, "zipcode_area": 25.01952992500119, "intersection_area": 12.171483495810765}, {"zipcode": 93905, "circle_area": 78.41371226364757, "zipcode_area": 24.22212776500001, "intersection_area": 23.55943295736085}, {"zipcode": 93906, "circle_area": 78.41371226364757, "zipcode_area": 34.69011077500038, "intersection_area": 27.843154405976538}, {"zipcode": 93907, "circle_area": 78.41371226364757, "zipcode_area": 143.29288939000102, "intersection_area": 4.059753975618023}, {"zipcode": 93908, "circle_area": 78.41371226364757, "zipcode_area": 636.4987469950013, "intersection_area": 10.779887428881596}]}, {"STATE_CODE": "06", "COUNTY_CODE": "055", "COUNTY": "Napa", "EPA_ID": "0004", "SITE_LATITUDE": "38.278849", "SITE_LONGITUDE": "-122.275024", "zipcode_intersections": [{"zipcode": 94558, "circle_area": 78.41371226364757, "zipcode_area": 1151.808913839998, "intersection_area": 38.82413777492237}, {"zipcode": 94559, "circle_area": 78.41371226364757, "zipcode_area": 112.03709527499983, "intersection_area": 39.58957448872507}]}, {"STATE_CODE": "06", "COUNTY_CODE": "059", "COUNTY": "Orange", "EPA_ID": "0007", "SITE_LATITUDE": "33.83062", "SITE_LONGITUDE": "-117.93845", "zipcode_intersections": [{"zipcode": 90620, "circle_area": 78.41371226364757, "zipcode_area": 16.093545235001, "intersection_area": 0.8350847791660797}, {"zipcode": 90621, "circle_area": 78.41371226364757, "zipcode_area": 10.61832827499949, "intersection_area": 0.10792510142531367}, {"zipcode": 90680, "circle_area": 78.41371226364757, "zipcode_area": 6.435717185000402, "intersection_area": 0.31289338304355435}, {"zipcode": 92801, "circle_area": 78.41371226364757, "zipcode_area": 15.933054809999476, "intersection_area": 15.171179934661762}, {"zipcode": 92802, "circle_area": 78.41371226364757, "zipcode_area": 11.481572549999875, "intersection_area": 10.844768585451035}, {"zipcode": 92804, "circle_area": 78.41371226364757, "zipcode_area": 17.969937334999308, "intersection_area": 12.182198914720646}, {"zipcode": 92805, "circle_area": 78.41371226364757, "zipcode_area": 15.703036834999635, "intersection_area": 14.617170691548619}, {"zipcode": 92806, "circle_area": 78.41371226364757, "zipcode_area": 20.163070955000837, "intersection_area": 0.19193152228963228}, {"zipcode": 92831, "circle_area": 78.41371226364757, "zipcode_area": 15.014527274999962, "intersection_area": 1.502588987029366}, {"zipcode": 92832, "circle_area": 78.41371226364757, "zipcode_area": 7.306319294999979, "intersection_area": 6.484964743100457}, {"zipcode": 92833, "circle_area": 78.41371226364757, "zipcode_area": 19.351239394999997, "intersection_area": 6.833856114352767}, {"zipcode": 92840, "circle_area": 78.41371226364757, "zipcode_area": 13.026282290000003, "intersection_area": 7.070639274252458}, {"zipcode": 92841, "circle_area": 78.41371226364757, "zipcode_area": 11.494917945000726, "intersection_area": 2.2584120197662427}, {"zipcode": 92868, "circle_area": 78.41371226364757, "zipcode_area": 8.671647870000823, "intersection_area": 9.821284005481499e-05}]}, {"STATE_CODE": "06", "COUNTY_CODE": "059", "COUNTY": "Orange", "EPA_ID": "0008", "SITE_LATITUDE": "33.819305", "SITE_LONGITUDE": "-117.918759", "zipcode_intersections": [{"zipcode": 92706, "circle_area": 78.41371226364757, "zipcode_area": 8.922697190000129, "intersection_area": 0.0170214704927108}, {"zipcode": 92801, "circle_area": 78.41371226364757, "zipcode_area": 15.933054809999476, "intersection_area": 10.1561541440487}, {"zipcode": 92802, "circle_area": 78.41371226364757, "zipcode_area": 11.481572549999875, "intersection_area": 11.48157254999987}, {"zipcode": 92804, "circle_area": 78.41371226364757, "zipcode_area": 17.969937334999308, "intersection_area": 7.486859078178467}, {"zipcode": 92805, "circle_area": 78.41371226364757, "zipcode_area": 15.703036834999635, "intersection_area": 15.703036834999624}, {"zipcode": 92806, "circle_area": 78.41371226364757, "zipcode_area": 20.163070955000837, "intersection_area": 10.177136414828619}, {"zipcode": 92831, "circle_area": 78.41371226364757, "zipcode_area": 15.014527274999962, "intersection_area": 1.6387552015584959}, {"zipcode": 92832, "circle_area": 78.41371226364757, "zipcode_area": 7.306319294999979, "intersection_area": 3.253865356825466}, {"zipcode": 92833, "circle_area": 78.41371226364757, "zipcode_area": 19.351239394999997, "intersection_area": 0.6401037243206733}, {"zipcode": 92840, "circle_area": 78.41371226364757, "zipcode_area": 13.026282290000003, "intersection_area": 11.924212471801518}, {"zipcode": 92841, "circle_area": 78.41371226364757, "zipcode_area": 11.494917945000726, "intersection_area": 0.5451580604183743}, {"zipcode": 92843, "circle_area": 78.41371226364757, "zipcode_area": 9.981710949999863, "intersection_area": 1.5158226584474055}, {"zipcode": 92865, "circle_area": 78.41371226364757, "zipcode_area": 9.658690959999895, "intersection_area": 0.0467361669644067}, {"zipcode": 92867, "circle_area": 78.41371226364757, "zipcode_area": 30.27183519000023, "intersection_area": 0.5539078684468282}, {"zipcode": 92868, "circle_area": 78.41371226364757, "zipcode_area": 8.671647870000823, "intersection_area": 3.2558465609827576}, {"zipcode": 92870, "circle_area": 78.41371226364757, "zipcode_area": 17.01817543000022, "intersection_area": 0.017523701333732444}]}, {"STATE_CODE": "06", "COUNTY_CODE": "059", "COUNTY": "Orange", "EPA_ID": "2022", "SITE_LATITUDE": "33.63003", "SITE_LONGITUDE": "-117.67593", "zipcode_intersections": [{"zipcode": 92610, "circle_area": 78.41371226364757, "zipcode_area": 10.175030304999598, "intersection_area": 1.624899835363356}, {"zipcode": 92618, "circle_area": 78.41371226364757, "zipcode_area": 52.09813167000084, "intersection_area": 6.511653951656556}, {"zipcode": 92630, "circle_area": 78.41371226364757, "zipcode_area": 26.72261852999915, "intersection_area": 26.30334758147018}, {"zipcode": 92637, "circle_area": 78.41371226364757, "zipcode_area": 7.468159390000105, "intersection_area": 3.091144548541094}, {"zipcode": 92653, "circle_area": 78.41371226364757, "zipcode_area": 17.48799212000007, "intersection_area": 7.768586258388808}, {"zipcode": 92677, "circle_area": 78.41371226364757, "zipcode_area": 41.472311314999985, "intersection_area": 0.0004112910404835161}, {"zipcode": 92688, "circle_area": 78.41371226364757, "zipcode_area": 33.31464251000047, "intersection_area": 0.09266392424589708}, {"zipcode": 92691, "circle_area": 78.41371226364757, "zipcode_area": 22.191734514999997, "intersection_area": 18.652973945180232}, {"zipcode": 92692, "circle_area": 78.41371226364757, "zipcode_area": 22.50720551999996, "intersection_area": 14.368030927760886}]}, {"STATE_CODE": "06", "COUNTY_CODE": "059", "COUNTY": "Orange", "EPA_ID": "5001", "SITE_LATITUDE": "33.92513", "SITE_LONGITUDE": "-117.95264", "zipcode_intersections": [{"zipcode": 90603, "circle_area": 78.41371226364757, "zipcode_area": 7.990159974999497, "intersection_area": 5.369450256800996}, {"zipcode": 90604, "circle_area": 78.41371226364757, "zipcode_area": 10.638465710000114, "intersection_area": 3.1824413414384525}, {"zipcode": 90605, "circle_area": 78.41371226364757, "zipcode_area": 16.15632098500035, "intersection_area": 0.15798219998516566}, {"zipcode": 90621, "circle_area": 78.41371226364757, "zipcode_area": 10.61832827499949, "intersection_area": 1.2675664512964717}, {"zipcode": 90631, "circle_area": 78.41371226364757, "zipcode_area": 35.31568455000006, "intersection_area": 34.251274072898845}, {"zipcode": 90638, "circle_area": 78.41371226364757, "zipcode_area": 19.608175309999474, "intersection_area": 4.753257839414462}, {"zipcode": 91745, "circle_area": 78.41371226364757, "zipcode_area": 32.79001770500032, "intersection_area": 0.2246009883173686}, {"zipcode": 91748, "circle_area": 78.41371226364757, "zipcode_area": 36.01886334000051, "intersection_area": 1.4512091432361076}, {"zipcode": 92821, "circle_area": 78.41371226364757, "zipcode_area": 35.76448927499918, "intersection_area": 6.344384736326732}, {"zipcode": 92831, "circle_area": 78.41371226364757, "zipcode_area": 15.014527274999962, "intersection_area": 0.10098661547894631}, {"zipcode": 92832, "circle_area": 78.41371226364757, "zipcode_area": 7.306319294999979, "intersection_area": 0.39226911738500764}, {"zipcode": 92833, "circle_area": 78.41371226364757, "zipcode_area": 19.351239394999997, "intersection_area": 10.853406862740282}, {"zipcode": 92835, "circle_area": 78.41371226364757, "zipcode_area": 14.475174330000538, "intersection_area": 10.06488263832883}]}, {"STATE_CODE": "06", "COUNTY_CODE": "061", "COUNTY": "Placer", "EPA_ID": "0006", "SITE_LATITUDE": "38.74643", "SITE_LONGITUDE": "-121.26498", "zipcode_intersections": [{"zipcode": 95610, "circle_area": 78.41371226364757, "zipcode_area": 21.2622584949991, "intersection_area": 10.119300005391542}, {"zipcode": 95621, "circle_area": 78.41371226364757, "zipcode_area": 17.902398090000055, "intersection_area": 1.8138425411198342}, {"zipcode": 95661, "circle_area": 78.41371226364757, "zipcode_area": 24.029014415000542, "intersection_area": 24.00676668584777}, {"zipcode": 95662, "circle_area": 78.41371226364757, "zipcode_area": 29.390384454999165, "intersection_area": 1.9681393885939396}, {"zipcode": 95677, "circle_area": 78.41371226364757, "zipcode_area": 26.173202639999243, "intersection_area": 8.258347001998251}, {"zipcode": 95678, "circle_area": 78.41371226364757, "zipcode_area": 30.669422185000705, "intersection_area": 25.646012471377695}, {"zipcode": 95746, "circle_area": 78.41371226364757, "zipcode_area": 68.72762053500017, "intersection_area": 3.907406558858368}, {"zipcode": 95747, "circle_area": 78.41371226364757, "zipcode_area": 113.07667049499892, "intersection_area": 2.522748198872061}, {"zipcode": 95765, "circle_area": 78.41371226364757, "zipcode_area": 33.670610265000086, "intersection_area": 0.1711494115883773}]}, {"STATE_CODE": "06", "COUNTY_CODE": "065", "COUNTY": "Riverside", "EPA_ID": "0009", "SITE_LATITUDE": "33.447867", "SITE_LONGITUDE": "-117.088649", "zipcode_intersections": [{"zipcode": 92028, "circle_area": 78.41371226364757, "zipcode_area": 293.42859293000146, "intersection_area": 9.462395119308471}, {"zipcode": 92059, "circle_area": 78.41371226364757, "zipcode_area": 69.30221512999846, "intersection_area": 11.930259304361453}, {"zipcode": 92590, "circle_area": 78.41371226364757, "zipcode_area": 136.68009501000037, "intersection_area": 0.3704791749200215}, {"zipcode": 92592, "circle_area": 78.41371226364757, "zipcode_area": 281.03935007000007, "intersection_area": 55.674851437252386}]}, {"STATE_CODE": "06", "COUNTY_CODE": "065", "COUNTY": "Riverside", "EPA_ID": "0012", "SITE_LATITUDE": "33.92086", "SITE_LONGITUDE": "-116.85841", "zipcode_intersections": [{"zipcode": 92220, "circle_area": 78.41371226364757, "zipcode_area": 356.97312862000086, "intersection_area": 76.63745175869349}, {"zipcode": 92230, "circle_area": 78.41371226364757, "zipcode_area": 29.480610059998266, "intersection_area": 1.7762605049541544}]}, {"STATE_CODE": "06", "COUNTY_CODE": "065", "COUNTY": "Riverside", "EPA_ID": "1016", "SITE_LATITUDE": "33.944713", "SITE_LONGITUDE": "-116.830074", "zipcode_intersections": [{"zipcode": 92220, "circle_area": 78.41371226364757, "zipcode_area": 356.97312862000086, "intersection_area": 71.33400438554554}, {"zipcode": 92230, "circle_area": 78.41371226364757, "zipcode_area": 29.480610059998266, "intersection_area": 7.079707878102091}]}, {"STATE_CODE": "06", "COUNTY_CODE": "065", "COUNTY": "Riverside", "EPA_ID": "5001", "SITE_LATITUDE": "33.85275", "SITE_LONGITUDE": "-116.54101", "zipcode_intersections": [{"zipcode": 92234, "circle_area": 78.41371226364757, "zipcode_area": 37.757745034999225, "intersection_area": 0.45386827869041796}, {"zipcode": 92240, "circle_area": 78.41371226364757, "zipcode_area": 90.74438932499821, "intersection_area": 1.0911979834861765}, {"zipcode": 92262, "circle_area": 78.41371226364757, "zipcode_area": 88.71864384000118, "intersection_area": 61.629304491595036}, {"zipcode": 92264, "circle_area": 78.41371226364757, "zipcode_area": 128.62464767000355, "intersection_area": 10.097421585583554}, {"zipcode": 92276, "circle_area": 78.41371226364757, "zipcode_area": 93.44299527000058, "intersection_area": 0.8302350446531372}, {"zipcode": 92549, "circle_area": 78.41371226364757, "zipcode_area": 267.44514932500323, "intersection_area": 1.0772023323959867}]}, {"STATE_CODE": "06", "COUNTY_CODE": "065", "COUNTY": "Riverside", "EPA_ID": "8001", "SITE_LATITUDE": "33.99958", "SITE_LONGITUDE": "-117.41601", "zipcode_intersections": [{"zipcode": 92316, "circle_area": 78.41371226364757, "zipcode_area": 29.34406112499918, "intersection_area": 3.335459699569227}, {"zipcode": 92337, "circle_area": 78.41371226364757, "zipcode_area": 34.64224552000078, "intersection_area": 4.528539337581616}, {"zipcode": 92501, "circle_area": 78.41371226364757, "zipcode_area": 14.447883124999517, "intersection_area": 9.210421972997757}, {"zipcode": 92504, "circle_area": 78.41371226364757, "zipcode_area": 57.405075509999556, "intersection_area": 6.936068801953072}, {"zipcode": 92506, "circle_area": 78.41371226364757, "zipcode_area": 40.934481469999824, "intersection_area": 4.890662468616963}, {"zipcode": 92507, "circle_area": 78.41371226364757, "zipcode_area": 54.1151407299992, "intersection_area": 0.022839274817562462}, {"zipcode": 92509, "circle_area": 78.41371226364757, "zipcode_area": 79.44003625999972, "intersection_area": 49.489720708111456}]}, {"STATE_CODE": "06", "COUNTY_CODE": "065", "COUNTY": "Riverside", "EPA_ID": "8005", "SITE_LATITUDE": "33.99636", "SITE_LONGITUDE": "-117.4924", "zipcode_intersections": [{"zipcode": 91752, "circle_area": 78.41371226364757, "zipcode_area": 38.64589533999938, "intersection_area": 21.09189774859383}, {"zipcode": 91761, "circle_area": 78.41371226364757, "zipcode_area": 72.0625725850016, "intersection_area": 0.01034376320959951}, {"zipcode": 92337, "circle_area": 78.41371226364757, "zipcode_area": 34.64224552000078, "intersection_area": 5.823576465712986}, {"zipcode": 92503, "circle_area": 78.41371226364757, "zipcode_area": 97.43460474500117, "intersection_area": 6.109620305737654}, {"zipcode": 92504, "circle_area": 78.41371226364757, "zipcode_area": 57.405075509999556, "intersection_area": 0.5511601002509668}, {"zipcode": 92505, "circle_area": 78.41371226364757, "zipcode_area": 25.698478244999475, "intersection_area": 3.7621031531485776}, {"zipcode": 92509, "circle_area": 78.41371226364757, "zipcode_area": 79.44003625999972, "intersection_area": 39.716390511305946}, {"zipcode": 92860, "circle_area": 78.41371226364757, "zipcode_area": 36.48127615000025, "intersection_area": 1.348620215687869}]}, {"STATE_CODE": "06", "COUNTY_CODE": "065", "COUNTY": "Riverside", "EPA_ID": "9001", "SITE_LATITUDE": "33.67649", "SITE_LONGITUDE": "-117.33098", "zipcode_intersections": [{"zipcode": 92530, "circle_area": 78.41371226364757, "zipcode_area": 207.9997383249988, "intersection_area": 46.859917534843724}, {"zipcode": 92532, "circle_area": 78.41371226364757, "zipcode_area": 38.38888484999949, "intersection_area": 23.430667983998873}, {"zipcode": 92570, "circle_area": 78.41371226364757, "zipcode_area": 268.1822296599991, "intersection_area": 7.809922537305338}, {"zipcode": 92587, "circle_area": 78.41371226364757, "zipcode_area": 19.744969534999946, "intersection_area": 0.11318844119888993}, {"zipcode": 92595, "circle_area": 78.41371226364757, "zipcode_area": 54.17399802000102, "intersection_area": 0.20001576630053614}]}, {"STATE_CODE": "06", "COUNTY_CODE": "067", "COUNTY": "Sacramento", "EPA_ID": "0002", "SITE_LATITUDE": "38.71209", "SITE_LONGITUDE": "-121.38109", "zipcode_intersections": [{"zipcode": 95621, "circle_area": 78.41371226364757, "zipcode_area": 17.902398090000055, "intersection_area": 0.004897966428493583}, {"zipcode": 95626, "circle_area": 78.41371226364757, "zipcode_area": 101.15458697500036, "intersection_area": 7.5113781035866065}, {"zipcode": 95652, "circle_area": 78.41371226364757, "zipcode_area": 10.01727030499996, "intersection_area": 3.5504019309383406}, {"zipcode": 95660, "circle_area": 78.41371226364757, "zipcode_area": 17.03844853500005, "intersection_area": 13.058598706454768}, {"zipcode": 95673, "circle_area": 78.41371226364757, "zipcode_area": 43.76559353499974, "intersection_area": 6.311773701446314}, {"zipcode": 95747, "circle_area": 78.41371226364757, "zipcode_area": 113.07667049499892, "intersection_area": 23.858282808873195}, {"zipcode": 95842, "circle_area": 78.41371226364757, "zipcode_area": 10.650390845000485, "intersection_area": 8.188369869525173}, {"zipcode": 95843, "circle_area": 78.41371226364757, "zipcode_area": 17.48207994999994, "intersection_area": 15.930009176395101}]}, {"STATE_CODE": "06", "COUNTY_CODE": "067", "COUNTY": "Sacramento", "EPA_ID": "0006", "SITE_LATITUDE": "38.613779", "SITE_LONGITUDE": "-121.368014", "zipcode_intersections": [{"zipcode": 95608, "circle_area": 78.41371226364757, "zipcode_area": 36.06540563000081, "intersection_area": 21.544134647798536}, {"zipcode": 95652, "circle_area": 78.41371226364757, "zipcode_area": 10.01727030499996, "intersection_area": 1.7154322325838947}, {"zipcode": 95660, "circle_area": 78.41371226364757, "zipcode_area": 17.03844853500005, "intersection_area": 4.011437100955126}, {"zipcode": 95670, "circle_area": 78.41371226364757, "zipcode_area": 35.51748848999964, "intersection_area": 0.7749572023584811}, {"zipcode": 95815, "circle_area": 78.41371226364757, "zipcode_area": 20.94939751999989, "intersection_area": 0.00537779471891554}, {"zipcode": 95821, "circle_area": 78.41371226364757, "zipcode_area": 19.120269499999594, "intersection_area": 18.72405701299984}, {"zipcode": 95825, "circle_area": 78.41371226364757, "zipcode_area": 12.639286009999676, "intersection_area": 7.028554416917615}, {"zipcode": 95826, "circle_area": 78.41371226364757, "zipcode_area": 28.798324685001113, "intersection_area": 1.3494727896660255}, {"zipcode": 95827, "circle_area": 78.41371226364757, "zipcode_area": 24.342003794999624, "intersection_area": 2.006060352102158}, {"zipcode": 95838, "circle_area": 78.41371226364757, "zipcode_area": 24.720676875000297, "intersection_area": 0.36580508580811505}, {"zipcode": 95841, "circle_area": 78.41371226364757, "zipcode_area": 10.448125734999495, "intersection_area": 4.690174893303237}, {"zipcode": 95842, "circle_area": 78.41371226364757, "zipcode_area": 10.650390845000485, "intersection_area": 0.24889928718980017}, {"zipcode": 95864, "circle_area": 78.41371226364757, "zipcode_area": 17.435061815000644, "intersection_area": 15.949349447245673}]}, {"STATE_CODE": "06", "COUNTY_CODE": "067", "COUNTY": "Sacramento", "EPA_ID": "0010", "SITE_LATITUDE": "38.56844", "SITE_LONGITUDE": "-121.49311", "zipcode_intersections": [{"zipcode": 95605, "circle_area": 78.41371226364757, "zipcode_area": 10.891480310001066, "intersection_area": 5.05056704342475}, {"zipcode": 95691, "circle_area": 78.41371226364757, "zipcode_area": 110.56555323499947, "intersection_area": 12.879433742226789}, {"zipcode": 95811, "circle_area": 78.41371226364757, "zipcode_area": 6.524901529999924, "intersection_area": 6.524901529999922}, {"zipcode": 95814, "circle_area": 78.41371226364757, "zipcode_area": 3.836399635000018, "intersection_area": 3.836399635000017}, {"zipcode": 95815, "circle_area": 78.41371226364757, "zipcode_area": 20.94939751999989, "intersection_area": 4.480586813869959}, {"zipcode": 95816, "circle_area": 78.41371226364757, "zipcode_area": 7.49434832999995, "intersection_area": 7.494348329999947}, {"zipcode": 95817, "circle_area": 78.41371226364757, "zipcode_area": 6.06206489499985, "intersection_area": 4.650140268825409}, {"zipcode": 95818, "circle_area": 78.41371226364757, "zipcode_area": 10.768045620000471, "intersection_area": 10.768045620000487}, {"zipcode": 95819, "circle_area": 78.41371226364757, "zipcode_area": 9.883332590000126, "intersection_area": 3.1116749436951574}, {"zipcode": 95820, "circle_area": 78.41371226364757, "zipcode_area": 14.095141639999762, "intersection_area": 4.122058698050831}, {"zipcode": 95822, "circle_area": 78.41371226364757, "zipcode_area": 22.724893114999723, "intersection_area": 8.358482899495833}, {"zipcode": 95824, "circle_area": 78.41371226364757, "zipcode_area": 10.668792005000267, "intersection_area": 0.2127848863929314}, {"zipcode": 95833, "circle_area": 78.41371226364757, "zipcode_area": 22.93302213499931, "intersection_area": 6.9242878526656115}]}, {"STATE_CODE": "06", "COUNTY_CODE": "067", "COUNTY": "Sacramento", "EPA_ID": "0011", "SITE_LATITUDE": "38.302591", "SITE_LONGITUDE": "-121.420838", "zipcode_intersections": [{"zipcode": 95632, "circle_area": 78.41371226364757, "zipcode_area": 303.7057990900015, "intersection_area": 20.97847207816359}, {"zipcode": 95757, "circle_area": 78.41371226364757, "zipcode_area": 174.8495697450009, "intersection_area": 57.43524018548397}]}, {"STATE_CODE": "06", "COUNTY_CODE": "067", "COUNTY": "Sacramento", "EPA_ID": "0015", "SITE_LATITUDE": "38.593322", "SITE_LONGITUDE": "-121.503795", "zipcode_intersections": [{"zipcode": 95605, "circle_area": 78.41371226364757, "zipcode_area": 10.891480310001066, "intersection_area": 7.469215340243543}, {"zipcode": 95691, "circle_area": 78.41371226364757, "zipcode_area": 110.56555323499947, "intersection_area": 11.438383126472138}, {"zipcode": 95811, "circle_area": 78.41371226364757, "zipcode_area": 6.524901529999924, "intersection_area": 6.524901529999922}, {"zipcode": 95814, "circle_area": 78.41371226364757, "zipcode_area": 3.836399635000018, "intersection_area": 3.836399635000017}, {"zipcode": 95815, "circle_area": 78.41371226364757, "zipcode_area": 20.94939751999989, "intersection_area": 5.440566256588514}, {"zipcode": 95816, "circle_area": 78.41371226364757, "zipcode_area": 7.49434832999995, "intersection_area": 5.832769127059453}, {"zipcode": 95817, "circle_area": 78.41371226364757, "zipcode_area": 6.06206489499985, "intersection_area": 0.51958642740933}, {"zipcode": 95818, "circle_area": 78.41371226364757, "zipcode_area": 10.768045620000471, "intersection_area": 9.16748410417996}, {"zipcode": 95822, "circle_area": 78.41371226364757, "zipcode_area": 22.724893114999723, "intersection_area": 0.10528486013491199}, {"zipcode": 95833, "circle_area": 78.41371226364757, "zipcode_area": 22.93302213499931, "intersection_area": 19.850858727143255}, {"zipcode": 95834, "circle_area": 78.41371226364757, "zipcode_area": 27.377377464999597, "intersection_area": 7.971672203841879}, {"zipcode": 95838, "circle_area": 78.41371226364757, "zipcode_area": 24.720676875000297, "intersection_area": 0.2565909255741283}]}, {"STATE_CODE": "06", "COUNTY_CODE": "071", "COUNTY": "San Bernardino", "EPA_ID": "0001", "SITE_LATITUDE": "34.89398", "SITE_LONGITUDE": "-117.024804", "zipcode_intersections": [{"zipcode": 92311, "circle_area": 78.41371226364757, "zipcode_area": 1085.1522324100074, "intersection_area": 78.41371226364758}]}, {"STATE_CODE": "06", "COUNTY_CODE": "071", "COUNTY": "San Bernardino", "EPA_ID": "0026", "SITE_LATITUDE": "34.06812", "SITE_LONGITUDE": "-117.52579", "zipcode_intersections": [{"zipcode": 91730, "circle_area": 78.41371226364757, "zipcode_area": 34.74343658500019, "intersection_area": 9.216993846392985}, {"zipcode": 91739, "circle_area": 78.41371226364757, "zipcode_area": 71.9899655050012, "intersection_area": 9.236345512085876}, {"zipcode": 91752, "circle_area": 78.41371226364757, "zipcode_area": 38.64589533999938, "intersection_area": 6.3838632715248425}, {"zipcode": 91761, "circle_area": 78.41371226364757, "zipcode_area": 72.0625725850016, "intersection_area": 16.00625716661426}, {"zipcode": 91764, "circle_area": 78.41371226364757, "zipcode_area": 20.05258373999958, "intersection_area": 5.1011711216322135}, {"zipcode": 92335, "circle_area": 78.41371226364757, "zipcode_area": 44.16673762499908, "intersection_area": 15.562909585858781}, {"zipcode": 92336, "circle_area": 78.41371226364757, "zipcode_area": 50.33728617999973, "intersection_area": 1.2924751241635268}, {"zipcode": 92337, "circle_area": 78.41371226364757, "zipcode_area": 34.64224552000078, "intersection_area": 14.442535198188894}, {"zipcode": 92509, "circle_area": 78.41371226364757, "zipcode_area": 79.44003625999972, "intersection_area": 1.171161437186464}]}, {"STATE_CODE": "06", "COUNTY_CODE": "071", "COUNTY": "San Bernardino", "EPA_ID": "0027", "SITE_LATITUDE": "34.030833", "SITE_LONGITUDE": "-117.61722", "zipcode_intersections": [{"zipcode": 91710, "circle_area": 78.41371226364757, "zipcode_area": 55.68692545999943, "intersection_area": 4.299647380904141}, {"zipcode": 91730, "circle_area": 78.41371226364757, "zipcode_area": 34.74343658500019, "intersection_area": 0.0046246274481987065}, {"zipcode": 91761, "circle_area": 78.41371226364757, "zipcode_area": 72.0625725850016, "intersection_area": 49.661713377085746}, {"zipcode": 91762, "circle_area": 78.41371226364757, "zipcode_area": 36.12735538500015, "intersection_area": 16.759574409027735}, {"zipcode": 91764, "circle_area": 78.41371226364757, "zipcode_area": 20.05258373999958, "intersection_area": 7.688152469181614}]}, {"STATE_CODE": "06", "COUNTY_CODE": "071", "COUNTY": "San Bernardino", "EPA_ID": "0306", "SITE_LATITUDE": "34.510961", "SITE_LONGITUDE": "-117.32554", "zipcode_intersections": [{"zipcode": 92307, "circle_area": 78.41371226364757, "zipcode_area": 477.06376032999646, "intersection_area": 0.47846930025761564}, {"zipcode": 92345, "circle_area": 78.41371226364757, "zipcode_area": 254.57195164500274, "intersection_area": 3.7507299604350326}, {"zipcode": 92392, "circle_area": 78.41371226364757, "zipcode_area": 94.77734631999999, "intersection_area": 16.932659220155443}, {"zipcode": 92394, "circle_area": 78.41371226364757, "zipcode_area": 81.9120228999993, "intersection_area": 25.087042150354787}, {"zipcode": 92395, "circle_area": 78.41371226364757, "zipcode_area": 43.84804965000035, "intersection_area": 32.164811632444604}]}, {"STATE_CODE": "06", "COUNTY_CODE": "071", "COUNTY": "San Bernardino", "EPA_ID": "1004", "SITE_LATITUDE": "34.10374", "SITE_LONGITUDE": "-117.62914", "zipcode_intersections": [{"zipcode": 91701, "circle_area": 78.41371226364757, "zipcode_area": 18.711787379999716, "intersection_area": 10.146692703654479}, {"zipcode": 91730, "circle_area": 78.41371226364757, "zipcode_area": 34.74343658500019, "intersection_area": 17.084613808551165}, {"zipcode": 91737, "circle_area": 78.41371226364757, "zipcode_area": 25.547872845000036, "intersection_area": 0.8817450673823021}, {"zipcode": 91761, "circle_area": 78.41371226364757, "zipcode_area": 72.0625725850016, "intersection_area": 4.302651459004848}, {"zipcode": 91762, "circle_area": 78.41371226364757, "zipcode_area": 36.12735538500015, "intersection_area": 4.803469838123559}, {"zipcode": 91764, "circle_area": 78.41371226364757, "zipcode_area": 20.05258373999958, "intersection_area": 13.47269238642574}, {"zipcode": 91784, "circle_area": 78.41371226364757, "zipcode_area": 23.631798080000667, "intersection_area": 10.821274169759182}, {"zipcode": 91786, "circle_area": 78.41371226364757, "zipcode_area": 22.63105533499995, "intersection_area": 16.90057283074633}]}, {"STATE_CODE": "06", "COUNTY_CODE": "071", "COUNTY": "San Bernardino", "EPA_ID": "1234", "SITE_LATITUDE": "35.77417", "SITE_LONGITUDE": "-117.3714", "zipcode_intersections": [{"zipcode": 92328, "circle_area": 78.41371226364757, "zipcode_area": 4620.059237134998, "intersection_area": 18.766112865594813}, {"zipcode": 93562, "circle_area": 78.41371226364757, "zipcode_area": 239.99975306999949, "intersection_area": 56.36491234221398}]}, {"STATE_CODE": "06", "COUNTY_CODE": "071", "COUNTY": "San Bernardino", "EPA_ID": "2002", "SITE_LATITUDE": "34.10002", "SITE_LONGITUDE": "-117.49201", "zipcode_intersections": [{"zipcode": 91730, "circle_area": 78.41371226364757, "zipcode_area": 34.74343658500019, "intersection_area": 0.5994145843612224}, {"zipcode": 91739, "circle_area": 78.41371226364757, "zipcode_area": 71.9899655050012, "intersection_area": 17.30207832489657}, {"zipcode": 91761, "circle_area": 78.41371226364757, "zipcode_area": 72.0625725850016, "intersection_area": 0.16786802649127822}, {"zipcode": 91764, "circle_area": 78.41371226364757, "zipcode_area": 20.05258373999958, "intersection_area": 0.9231711091070967}, {"zipcode": 92335, "circle_area": 78.41371226364757, "zipcode_area": 44.16673762499908, "intersection_area": 30.374992864536246}, {"zipcode": 92336, "circle_area": 78.41371226364757, "zipcode_area": 50.33728617999973, "intersection_area": 20.745697343483062}, {"zipcode": 92337, "circle_area": 78.41371226364757, "zipcode_area": 34.64224552000078, "intersection_area": 8.300490010772165}]}, {"STATE_CODE": "06", "COUNTY_CODE": "071", "COUNTY": "San Bernardino", "EPA_ID": "9004", "SITE_LATITUDE": "34.106678", "SITE_LONGITUDE": "-117.274063", "zipcode_intersections": [{"zipcode": 92324, "circle_area": 78.41371226364757, "zipcode_area": 71.16349727500129, "intersection_area": 2.644167339170855}, {"zipcode": 92346, "circle_area": 78.41371226364757, "zipcode_area": 68.84848196000046, "intersection_area": 2.3071475598012263}, {"zipcode": 92354, "circle_area": 78.41371226364757, "zipcode_area": 12.59490406999986, "intersection_area": 1.8894456730949067}, {"zipcode": 92373, "circle_area": 78.41371226364757, "zipcode_area": 101.29855100500058, "intersection_area": 0.0001103633090585275}, {"zipcode": 92374, "circle_area": 78.41371226364757, "zipcode_area": 45.4026584099998, "intersection_area": 2.469240598239134}, {"zipcode": 92401, "circle_area": 78.41371226364757, "zipcode_area": 1.7210579349997575, "intersection_area": 1.7210579349997566}, {"zipcode": 92404, "circle_area": 78.41371226364757, "zipcode_area": 79.99418737499992, "intersection_area": 15.121721721320391}, {"zipcode": 92405, "circle_area": 78.41371226364757, "zipcode_area": 12.68482852500003, "intersection_area": 6.637738629466504}, {"zipcode": 92408, "circle_area": 78.41371226364757, "zipcode_area": 26.848594960000625, "intersection_area": 24.56530920440667}, {"zipcode": 92410, "circle_area": 78.41371226364757, "zipcode_area": 20.89804081499951, "intersection_area": 15.490225124366605}, {"zipcode": 92411, "circle_area": 78.41371226364757, "zipcode_area": 12.335134684999783, "intersection_area": 5.399802475472477}, {"zipcode": 92415, "circle_area": 78.41371226364757, "zipcode_area": 0.16774564000006734, "intersection_area": 0.1677456400000673}]}, {"STATE_CODE": "06", "COUNTY_CODE": "073", "COUNTY": "San Diego", "EPA_ID": "0001", "SITE_LATITUDE": "32.631242", "SITE_LONGITUDE": "-117.059088", "zipcode_intersections": [{"zipcode": 91902, "circle_area": 78.41371226364757, "zipcode_area": 30.843021779999674, "intersection_area": 7.4922400483779255}, {"zipcode": 91910, "circle_area": 78.41371226364757, "zipcode_area": 35.49341803000044, "intersection_area": 28.808348483761716}, {"zipcode": 91911, "circle_area": 78.41371226364757, "zipcode_area": 31.883685630000215, "intersection_area": 26.543421971967003}, {"zipcode": 91913, "circle_area": 78.41371226364757, "zipcode_area": 22.705932949999706, "intersection_area": 0.4829403222720846}, {"zipcode": 91950, "circle_area": 78.41371226364757, "zipcode_area": 19.076776200000058, "intersection_area": 6.671659642281317}, {"zipcode": 92139, "circle_area": 78.41371226364757, "zipcode_area": 8.909007485000183, "intersection_area": 4.16197447294741}, {"zipcode": 92154, "circle_area": 78.41371226364757, "zipcode_area": 129.17642153000116, "intersection_area": 3.7132959889444477}]}, {"STATE_CODE": "06", "COUNTY_CODE": "073", "COUNTY": "San Diego", "EPA_ID": "1006", "SITE_LATITUDE": "32.842318", "SITE_LONGITUDE": "-116.768293", "zipcode_intersections": [{"zipcode": 91901, "circle_area": 78.41371226364757, "zipcode_area": 195.9310128299992, "intersection_area": 67.78915547356003}, {"zipcode": 92019, "circle_area": 78.41371226364757, "zipcode_area": 79.10224703999504, "intersection_area": 1.2901886190782932}, {"zipcode": 92021, "circle_area": 78.41371226364757, "zipcode_area": 70.37673272000045, "intersection_area": 3.075344604745407}, {"zipcode": 92040, "circle_area": 78.41371226364757, "zipcode_area": 171.5241966050038, "intersection_area": 0.5711094906506332}]}, {"STATE_CODE": "06", "COUNTY_CODE": "073", "COUNTY": "San Diego", "EPA_ID": "1008", "SITE_LATITUDE": "33.217055", "SITE_LONGITUDE": "-117.396177", "zipcode_intersections": [{"zipcode": 92054, "circle_area": 78.41371226364757, "zipcode_area": 20.961200409999613, "intersection_area": 10.23381328791791}, {"zipcode": 92055, "circle_area": 78.41371226364757, "zipcode_area": 326.09167719500005, "intersection_area": 7.957258334338678}, {"zipcode": 92058, "circle_area": 78.41371226364757, "zipcode_area": 115.67060316499858, "intersection_area": 31.050432851786237}, {"zipcode": 92672, "circle_area": 78.41371226364757, "zipcode_area": 91.23893119500035, "intersection_area": 0.00435681723227556}]}, {"STATE_CODE": "06", "COUNTY_CODE": "073", "COUNTY": "San Diego", "EPA_ID": "1014", "SITE_LATITUDE": "32.57816", "SITE_LONGITUDE": "-116.92135", "zipcode_intersections": [{"zipcode": 91911, "circle_area": 78.41371226364757, "zipcode_area": 31.883685630000215, "intersection_area": 0.12149924814529281}, {"zipcode": 91913, "circle_area": 78.41371226364757, "zipcode_area": 22.705932949999706, "intersection_area": 0.30604565450341437}, {"zipcode": 91915, "circle_area": 78.41371226364757, "zipcode_area": 20.675597240000897, "intersection_area": 8.337402827523675}, {"zipcode": 92154, "circle_area": 78.41371226364757, "zipcode_area": 129.17642153000116, "intersection_area": 41.322406486466775}, {"zipcode": 92179, "circle_area": 78.41371226364757, "zipcode_area": 0.6221712899999274, "intersection_area": 0.6221712899999277}]}, {"STATE_CODE": "06", "COUNTY_CODE": "073", "COUNTY": "San Diego", "EPA_ID": "1016", "SITE_LATITUDE": "32.845709", "SITE_LONGITUDE": "-117.123964", "zipcode_intersections": [{"zipcode": 92111, "circle_area": 78.41371226364757, "zipcode_area": 21.142083210000358, "intersection_area": 6.441378728903857}, {"zipcode": 92117, "circle_area": 78.41371226364757, "zipcode_area": 21.70592497499983, "intersection_area": 0.8870674942207529}, {"zipcode": 92120, "circle_area": 78.41371226364757, "zipcode_area": 19.15168010500006, "intersection_area": 0.6195489029791398}, {"zipcode": 92121, "circle_area": 78.41371226364757, "zipcode_area": 31.357290614999688, "intersection_area": 0.09791554579522764}, {"zipcode": 92123, "circle_area": 78.41371226364757, "zipcode_area": 21.473836079999984, "intersection_area": 14.475780301788571}, {"zipcode": 92124, "circle_area": 78.41371226364757, "zipcode_area": 24.40264069000002, "intersection_area": 13.932478082482248}, {"zipcode": 92126, "circle_area": 78.41371226364757, "zipcode_area": 28.92541745999962, "intersection_area": 3.6853043217650705}, {"zipcode": 92131, "circle_area": 78.41371226364757, "zipcode_area": 96.94711723999924, "intersection_area": 15.072476613800077}, {"zipcode": 92145, "circle_area": 78.41371226364757, "zipcode_area": 26.563840945001402, "intersection_area": 23.201762271912813}]}, {"STATE_CODE": "06", "COUNTY_CODE": "073", "COUNTY": "San Diego", "EPA_ID": "1017", "SITE_LATITUDE": "32.985442", "SITE_LONGITUDE": "-117.08218", "zipcode_intersections": [{"zipcode": 92064, "circle_area": 78.41371226364757, "zipcode_area": 105.98888195500075, "intersection_area": 23.075940779872226}, {"zipcode": 92127, "circle_area": 78.41371226364757, "zipcode_area": 57.96910185500031, "intersection_area": 16.95485750966601}, {"zipcode": 92128, "circle_area": 78.41371226364757, "zipcode_area": 29.27109227999887, "intersection_area": 22.199679108989347}, {"zipcode": 92129, "circle_area": 78.41371226364757, "zipcode_area": 32.682767934999596, "intersection_area": 15.706165805444469}, {"zipcode": 92131, "circle_area": 78.41371226364757, "zipcode_area": 96.94711723999924, "intersection_area": 0.477069059675349}]}, {"STATE_CODE": "06", "COUNTY_CODE": "073", "COUNTY": "San Diego", "EPA_ID": "1022", "SITE_LATITUDE": "32.789565", "SITE_LONGITUDE": "-116.944308", "zipcode_intersections": [{"zipcode": 91941, "circle_area": 78.41371226364757, "zipcode_area": 20.50684279499979, "intersection_area": 9.553292572930044}, {"zipcode": 91942, "circle_area": 78.41371226364757, "zipcode_area": 14.383806310000484, "intersection_area": 1.0723753737651527}, {"zipcode": 91977, "circle_area": 78.41371226364757, "zipcode_area": 26.006653160000486, "intersection_area": 0.530201230762934}, {"zipcode": 91978, "circle_area": 78.41371226364757, "zipcode_area": 29.826778864999905, "intersection_area": 0.3206805185003008}, {"zipcode": 92019, "circle_area": 78.41371226364757, "zipcode_area": 79.10224703999504, "intersection_area": 23.931343401962057}, {"zipcode": 92020, "circle_area": 78.41371226364757, "zipcode_area": 27.715639045001428, "intersection_area": 22.65599973323637}, {"zipcode": 92021, "circle_area": 78.41371226364757, "zipcode_area": 70.37673272000045, "intersection_area": 15.224646742659383}, {"zipcode": 92040, "circle_area": 78.41371226364757, "zipcode_area": 171.5241966050038, "intersection_area": 2.420450632056077}, {"zipcode": 92071, "circle_area": 78.41371226364757, "zipcode_area": 47.501890699998924, "intersection_area": 2.7047220577752493}]}, {"STATE_CODE": "06", "COUNTY_CODE": "073", "COUNTY": "San Diego", "EPA_ID": "1026", "SITE_LATITUDE": "32.710177", "SITE_LONGITUDE": "-117.142665", "zipcode_intersections": [{"zipcode": 91950, "circle_area": 78.41371226364757, "zipcode_area": 19.076776200000058, "intersection_area": 1.8520448359029207}, {"zipcode": 92101, "circle_area": 78.41371226364757, "zipcode_area": 27.50539021999969, "intersection_area": 16.337277988520768}, {"zipcode": 92102, "circle_area": 78.41371226364757, "zipcode_area": 11.18676174999968, "intersection_area": 9.312320824276235}, {"zipcode": 92103, "circle_area": 78.41371226364757, "zipcode_area": 9.182374920000084, "intersection_area": 6.228964510847123}, {"zipcode": 92104, "circle_area": 78.41371226364757, "zipcode_area": 9.206100540000335, "intersection_area": 8.889392486550419}, {"zipcode": 92105, "circle_area": 78.41371226364757, "zipcode_area": 14.393370069999941, "intersection_area": 3.9220858947093347}, {"zipcode": 92113, "circle_area": 78.41371226364757, "zipcode_area": 12.944029949999987, "intersection_area": 11.710465259260657}, {"zipcode": 92116, "circle_area": 78.41371226364757, "zipcode_area": 8.423979484999837, "intersection_area": 0.7445647229218499}, {"zipcode": 92118, "circle_area": 78.41371226364757, "zipcode_area": 32.72375762500224, "intersection_area": 13.767101195802331}, {"zipcode": 92132, "circle_area": 78.41371226364757, "zipcode_area": 0.08047692499993316, "intersection_area": 0.08047692499993313}, {"zipcode": 92134, "circle_area": 78.41371226364757, "zipcode_area": 0.18704160000010475, "intersection_area": 0.18704160000010475}, {"zipcode": 92136, "circle_area": 78.41371226364757, "zipcode_area": 3.097047524999884, "intersection_area": 3.097047524999885}, {"zipcode": 92155, "circle_area": 78.41371226364757, "zipcode_area": 2.3004954349989886, "intersection_area": 0.7837611156009489}]}, {"STATE_CODE": "06", "COUNTY_CODE": "075", "COUNTY": "San Francisco", "EPA_ID": "0005", "SITE_LATITUDE": "37.765946", "SITE_LONGITUDE": "-122.399044", "zipcode_intersections": [{"zipcode": 94102, "circle_area": 78.41371226364757, "zipcode_area": 1.7522040300003876, "intersection_area": 1.7522040300003872}, {"zipcode": 94103, "circle_area": 78.41371226364757, "zipcode_area": 3.6388537400000787, "intersection_area": 3.638853740000081}, {"zipcode": 94104, "circle_area": 78.41371226364757, "zipcode_area": 0.2054529550001643, "intersection_area": 0.20545295500016436}, {"zipcode": 94105, "circle_area": 78.41371226364757, "zipcode_area": 2.808907214999237, "intersection_area": 2.76426504410618}, {"zipcode": 94107, "circle_area": 78.41371226364757, "zipcode_area": 5.585615929999418, "intersection_area": 5.585615929999422}, {"zipcode": 94108, "circle_area": 78.41371226364757, "zipcode_area": 0.6834495099998246, "intersection_area": 0.6834495099998248}, {"zipcode": 94109, "circle_area": 78.41371226364757, "zipcode_area": 3.159957430000067, "intersection_area": 2.9869809946390533}, {"zipcode": 94110, "circle_area": 78.41371226364757, "zipcode_area": 6.3402942849997315, "intersection_area": 6.340294284999736}, {"zipcode": 94111, "circle_area": 78.41371226364757, "zipcode_area": 0.8850441250000559, "intersection_area": 0.8850441250000557}, {"zipcode": 94112, "circle_area": 78.41371226364757, "zipcode_area": 8.827983614999152, "intersection_area": 1.0949432540607889}, {"zipcode": 94114, "circle_area": 78.41371226364757, "zipcode_area": 3.6666705399998234, "intersection_area": 3.5617167573081967}, {"zipcode": 94115, "circle_area": 78.41371226364757, "zipcode_area": 3.0103335599998826, "intersection_area": 2.649022556828925}, {"zipcode": 94117, "circle_area": 78.41371226364757, "zipcode_area": 3.3756336600002377, "intersection_area": 2.2249793550050367}, {"zipcode": 94118, "circle_area": 78.41371226364757, "zipcode_area": 5.313820795000049, "intersection_area": 0.12373406157161207}, {"zipcode": 94123, "circle_area": 78.41371226364757, "zipcode_area": 3.6485338299999106, "intersection_area": 1.1172380594584799}, {"zipcode": 94124, "circle_area": 78.41371226364757, "zipcode_area": 16.084923050000036, "intersection_area": 11.10816431136577}, {"zipcode": 94130, "circle_area": 78.41371226364757, "zipcode_area": 4.785000549999777, "intersection_area": 0.02603925773924919}, {"zipcode": 94131, "circle_area": 78.41371226364757, "zipcode_area": 5.405328605000092, "intersection_area": 2.850342158984069}, {"zipcode": 94133, "circle_area": 78.41371226364757, "zipcode_area": 1.7423332550001156, "intersection_area": 1.742333255000113}, {"zipcode": 94134, "circle_area": 78.41371226364757, "zipcode_area": 6.865455544999825, "intersection_area": 3.2763915609437264}, {"zipcode": 94158, "circle_area": 78.41371226364757, "zipcode_area": 2.377104014999022, "intersection_area": 2.3771040149990204}]}, {"STATE_CODE": "06", "COUNTY_CODE": "077", "COUNTY": "San Joaquin", "EPA_ID": "1002", "SITE_LATITUDE": "37.950741", "SITE_LONGITUDE": "-121.268523", "zipcode_intersections": [{"zipcode": 95202, "circle_area": 78.41371226364757, "zipcode_area": 2.8323430649999604, "intersection_area": 2.8323430649999626}, {"zipcode": 95203, "circle_area": 78.41371226364757, "zipcode_area": 17.911580740000392, "intersection_area": 6.6200631840305295}, {"zipcode": 95204, "circle_area": 78.41371226364757, "zipcode_area": 14.780932540000125, "intersection_area": 6.2243887523473465}, {"zipcode": 95205, "circle_area": 78.41371226364757, "zipcode_area": 23.906138030000417, "intersection_area": 23.433328316554977}, {"zipcode": 95206, "circle_area": 78.41371226364757, "zipcode_area": 360.85443771000064, "intersection_area": 25.700848726759236}, {"zipcode": 95207, "circle_area": 78.41371226364757, "zipcode_area": 19.73299687999963, "intersection_area": 0.04749585840013632}, {"zipcode": 95210, "circle_area": 78.41371226364757, "zipcode_area": 20.423858535000917, "intersection_area": 0.3751431461731151}, {"zipcode": 95211, "circle_area": 78.41371226364757, "zipcode_area": 0.30578970500017344, "intersection_area": 0.021848007249084207}, {"zipcode": 95212, "circle_area": 78.41371226364757, "zipcode_area": 56.674778434999496, "intersection_area": 0.40753343619790444}, {"zipcode": 95215, "circle_area": 78.41371226364757, "zipcode_area": 246.95969782499967, "intersection_area": 12.66541969866647}, {"zipcode": 95231, "circle_area": 78.41371226364757, "zipcode_area": 28.734310609999937, "intersection_area": 0.08530007226878275}]}, {"STATE_CODE": "06", "COUNTY_CODE": "077", "COUNTY": "San Joaquin", "EPA_ID": "3005", "SITE_LATITUDE": "37.682635", "SITE_LONGITUDE": "-121.442495", "zipcode_intersections": [{"zipcode": 95304, "circle_area": 78.41371226364757, "zipcode_area": 413.3956879850029, "intersection_area": 14.450857095289049}, {"zipcode": 95376, "circle_area": 78.41371226364757, "zipcode_area": 20.163679615000163, "intersection_area": 7.684658645115384}, {"zipcode": 95377, "circle_area": 78.41371226364757, "zipcode_area": 290.8555268049983, "intersection_area": 56.278196523243025}]}, {"STATE_CODE": "06", "COUNTY_CODE": "079", "COUNTY": "San Luis Obispo", "EPA_ID": "2004", "SITE_LATITUDE": "35.02083", "SITE_LONGITUDE": "-120.56388", "zipcode_intersections": [{"zipcode": 93420, "circle_area": 78.41371226364757, "zipcode_area": 508.86552730499545, "intersection_area": 13.641703397487849}, {"zipcode": 93434, "circle_area": 78.41371226364757, "zipcode_area": 59.72738138500088, "intersection_area": 1.888756131487104}, {"zipcode": 93444, "circle_area": 78.41371226364757, "zipcode_area": 169.8689543049993, "intersection_area": 56.11552393959505}, {"zipcode": 93445, "circle_area": 78.41371226364757, "zipcode_area": 46.744527145000006, "intersection_area": 6.320401019457876}, {"zipcode": 93458, "circle_area": 78.41371226364757, "zipcode_area": 73.45801409999905, "intersection_area": 0.44732777561955367}]}, {"STATE_CODE": "06", "COUNTY_CODE": "079", "COUNTY": "San Luis Obispo", "EPA_ID": "4002", "SITE_LATITUDE": "35.03146", "SITE_LONGITUDE": "-120.50103", "zipcode_intersections": [{"zipcode": 93420, "circle_area": 78.41371226364757, "zipcode_area": 508.86552730499545, "intersection_area": 6.01914347982059}, {"zipcode": 93444, "circle_area": 78.41371226364757, "zipcode_area": 169.8689543049993, "intersection_area": 68.75262968075415}, {"zipcode": 93458, "circle_area": 78.41371226364757, "zipcode_area": 73.45801409999905, "intersection_area": 3.641939103072954}]}, {"STATE_CODE": "06", "COUNTY_CODE": "079", "COUNTY": "San Luis Obispo", "EPA_ID": "8002", "SITE_LATITUDE": "35.49453", "SITE_LONGITUDE": "-120.66617", "zipcode_intersections": [{"zipcode": 93422, "circle_area": 78.41371226364757, "zipcode_area": 177.08821634000148, "intersection_area": 61.78739512569401}, {"zipcode": 93465, "circle_area": 78.41371226364757, "zipcode_area": 217.88971454500026, "intersection_area": 16.626317137953503}]}, {"STATE_CODE": "06", "COUNTY_CODE": "081", "COUNTY": "San Mateo", "EPA_ID": "1001", "SITE_LATITUDE": "37.482934", "SITE_LONGITUDE": "-122.20337", "zipcode_intersections": [{"zipcode": 94025, "circle_area": 78.41371226364757, "zipcode_area": 22.065534139999524, "intersection_area": 13.13267589087699}, {"zipcode": 94027, "circle_area": 78.41371226364757, "zipcode_area": 13.341781115000837, "intersection_area": 11.723073375892492}, {"zipcode": 94061, "circle_area": 78.41371226364757, "zipcode_area": 10.188570529999444, "intersection_area": 7.814511537444503}, {"zipcode": 94062, "circle_area": 78.41371226364757, "zipcode_area": 173.12571035999972, "intersection_area": 4.499728483772092}, {"zipcode": 94063, "circle_area": 78.41371226364757, "zipcode_area": 18.897325409999887, "intersection_area": 18.896296751220866}, {"zipcode": 94070, "circle_area": 78.41371226364757, "zipcode_area": 16.155137899999378, "intersection_area": 1.309369005458997}, {"zipcode": 94301, "circle_area": 78.41371226364757, "zipcode_area": 6.2505774699998895, "intersection_area": 0.10225339729831959}, {"zipcode": 94303, "circle_area": 78.41371226364757, "zipcode_area": 22.648553349999826, "intersection_area": 0.02900485506741803}, {"zipcode": 94304, "circle_area": 78.41371226364757, "zipcode_area": 12.667847304999867, "intersection_area": 0.18505327484957643}]}, {"STATE_CODE": "06", "COUNTY_CODE": "083", "COUNTY": "Santa Barbara", "EPA_ID": "1008", "SITE_LATITUDE": "34.942872", "SITE_LONGITUDE": "-120.435611", "zipcode_intersections": [{"zipcode": 93444, "circle_area": 78.41371226364757, "zipcode_area": 169.8689543049993, "intersection_area": 0.6196901184312811}, {"zipcode": 93454, "circle_area": 78.41371226364757, "zipcode_area": 1078.6480124700006, "intersection_area": 34.49422542012724}, {"zipcode": 93455, "circle_area": 78.41371226364757, "zipcode_area": 302.8861027200003, "intersection_area": 16.46604562893835}, {"zipcode": 93458, "circle_area": 78.41371226364757, "zipcode_area": 73.45801409999905, "intersection_area": 26.833751096150937}]}, {"STATE_CODE": "06", "COUNTY_CODE": "083", "COUNTY": "Santa Barbara", "EPA_ID": "1013", "SITE_LATITUDE": "34.725352", "SITE_LONGITUDE": "-120.428717", "zipcode_intersections": [{"zipcode": 93436, "circle_area": 78.41371226364757, "zipcode_area": 582.5108530800017, "intersection_area": 48.42070993612407}, {"zipcode": 93437, "circle_area": 78.41371226364757, "zipcode_area": 126.77626087500106, "intersection_area": 1.9092096691656408}, {"zipcode": 93455, "circle_area": 78.41371226364757, "zipcode_area": 302.8861027200003, "intersection_area": 26.873505665163357}]}, {"STATE_CODE": "06", "COUNTY_CODE": "083", "COUNTY": "Santa Barbara", "EPA_ID": "1014", "SITE_LATITUDE": "34.54166", "SITE_LONGITUDE": "-119.79146", "zipcode_intersections": [{"zipcode": 93105, "circle_area": 78.41371226364757, "zipcode_area": 357.16282061500414, "intersection_area": 47.49791226417555}, {"zipcode": 93460, "circle_area": 78.41371226364757, "zipcode_area": 560.6571501999971, "intersection_area": 12.760965740924705}]}, {"STATE_CODE": "06", "COUNTY_CODE": "083", "COUNTY": "Santa Barbara", "EPA_ID": "1020", "SITE_LATITUDE": "34.414942", "SITE_LONGITUDE": "-119.879511", "zipcode_intersections": [{"zipcode": 93106, "circle_area": 78.41371226364757, "zipcode_area": 1.5959737950001223, "intersection_area": 1.5959737950001218}, {"zipcode": 93111, "circle_area": 78.41371226364757, "zipcode_area": 20.984968874999552, "intersection_area": 0.005880275992351791}, {"zipcode": 93117, "circle_area": 78.41371226364757, "zipcode_area": 432.118183575, "intersection_area": 36.480249724919915}]}, {"STATE_CODE": "06", "COUNTY_CODE": "083", "COUNTY": "Santa Barbara", "EPA_ID": "1021", "SITE_LATITUDE": "34.403052", "SITE_LONGITUDE": "-119.457914", "zipcode_intersections": [{"zipcode": 93001, "circle_area": 78.41371226364757, "zipcode_area": 263.81202379000007, "intersection_area": 19.88103912911061}, {"zipcode": 93013, "circle_area": 78.41371226364757, "zipcode_area": 105.73439517500032, "intersection_area": 49.746177743672106}]}, {"STATE_CODE": "06", "COUNTY_CODE": "083", "COUNTY": "Santa Barbara", "EPA_ID": "1025", "SITE_LATITUDE": "34.48974", "SITE_LONGITUDE": "-120.04692", "zipcode_intersections": [{"zipcode": 93117, "circle_area": 78.41371226364757, "zipcode_area": 432.118183575, "intersection_area": 66.58063462151839}, {"zipcode": 93460, "circle_area": 78.41371226364757, "zipcode_area": 560.6571501999971, "intersection_area": 0.08074224561522643}, {"zipcode": 93463, "circle_area": 78.41371226364757, "zipcode_area": 86.70980744500069, "intersection_area": 0.00017534634906215483}]}, {"STATE_CODE": "06", "COUNTY_CODE": "083", "COUNTY": "Santa Barbara", "EPA_ID": "2004", "SITE_LATITUDE": "34.63782", "SITE_LONGITUDE": "-120.4575", "zipcode_intersections": [{"zipcode": 93436, "circle_area": 78.41371226364757, "zipcode_area": 582.5108530800017, "intersection_area": 78.41371226364758}]}, {"STATE_CODE": "06", "COUNTY_CODE": "085", "COUNTY": "Santa Clara", "EPA_ID": "0005", "SITE_LATITUDE": "37.348497", "SITE_LONGITUDE": "-121.894898", "zipcode_intersections": [{"zipcode": 95050, "circle_area": 78.41371226364757, "zipcode_area": 14.368702239999978, "intersection_area": 3.0402546843502942}, {"zipcode": 95053, "circle_area": 78.41371226364757, "zipcode_area": 0.38637186500010823, "intersection_area": 0.38637186500010834}, {"zipcode": 95110, "circle_area": 78.41371226364757, "zipcode_area": 11.994866365000142, "intersection_area": 11.702497738161055}, {"zipcode": 95112, "circle_area": 78.41371226364757, "zipcode_area": 19.146338729999957, "intersection_area": 17.283215225807812}, {"zipcode": 95113, "circle_area": 78.41371226364757, "zipcode_area": 0.9171299949998817, "intersection_area": 0.9171299949998808}, {"zipcode": 95116, "circle_area": 78.41371226364757, "zipcode_area": 9.386284229999754, "intersection_area": 6.320663655131949}, {"zipcode": 95122, "circle_area": 78.41371226364757, "zipcode_area": 12.591702915000306, "intersection_area": 2.143971434174624}, {"zipcode": 95125, "circle_area": 78.41371226364757, "zipcode_area": 19.173154395000306, "intersection_area": 6.058055328816685}, {"zipcode": 95126, "circle_area": 78.41371226364757, "zipcode_area": 8.73526171500048, "intersection_area": 8.192982418833418}, {"zipcode": 95128, "circle_area": 78.41371226364757, "zipcode_area": 10.348480864999052, "intersection_area": 3.797168984412913}, {"zipcode": 95131, "circle_area": 78.41371226364757, "zipcode_area": 15.219169300000095, "intersection_area": 12.366290884298857}, {"zipcode": 95132, "circle_area": 78.41371226364757, "zipcode_area": 72.1126821799992, "intersection_area": 0.12819531535204054}, {"zipcode": 95133, "circle_area": 78.41371226364757, "zipcode_area": 8.592433250000145, "intersection_area": 6.044004718099701}, {"zipcode": 95134, "circle_area": 78.41371226364757, "zipcode_area": 28.49683483500136, "intersection_area": 0.032910016208419185}]}, {"STATE_CODE": "06", "COUNTY_CODE": "085", "COUNTY": "Santa Clara", "EPA_ID": "0006", "SITE_LATITUDE": "37.338135", "SITE_LONGITUDE": "-121.849783", "zipcode_intersections": [{"zipcode": 95110, "circle_area": 78.41371226364757, "zipcode_area": 11.994866365000142, "intersection_area": 3.330388757668355}, {"zipcode": 95111, "circle_area": 78.41371226364757, "zipcode_area": 15.295653814999747, "intersection_area": 5.482363465098095}, {"zipcode": 95112, "circle_area": 78.41371226364757, "zipcode_area": 19.146338729999957, "intersection_area": 13.201403922555304}, {"zipcode": 95113, "circle_area": 78.41371226364757, "zipcode_area": 0.9171299949998817, "intersection_area": 0.9171299949998808}, {"zipcode": 95116, "circle_area": 78.41371226364757, "zipcode_area": 9.386284229999754, "intersection_area": 9.386284229999745}, {"zipcode": 95121, "circle_area": 78.41371226364757, "zipcode_area": 11.701165485000315, "intersection_area": 4.854019673781199}, {"zipcode": 95122, "circle_area": 78.41371226364757, "zipcode_area": 12.591702915000306, "intersection_area": 12.591702915000342}, {"zipcode": 95125, "circle_area": 78.41371226364757, "zipcode_area": 19.173154395000306, "intersection_area": 3.8969467412464445}, {"zipcode": 95126, "circle_area": 78.41371226364757, "zipcode_area": 8.73526171500048, "intersection_area": 0.16187489227673874}, {"zipcode": 95127, "circle_area": 78.41371226364757, "zipcode_area": 50.242427330000936, "intersection_area": 10.53953356683615}, {"zipcode": 95131, "circle_area": 78.41371226364757, "zipcode_area": 15.219169300000095, "intersection_area": 1.3645397863993396}, {"zipcode": 95132, "circle_area": 78.41371226364757, "zipcode_area": 72.1126821799992, "intersection_area": 0.2697266983829331}, {"zipcode": 95133, "circle_area": 78.41371226364757, "zipcode_area": 8.592433250000145, "intersection_area": 8.563915321039318}, {"zipcode": 95136, "circle_area": 78.41371226364757, "zipcode_area": 13.741889724999648, "intersection_area": 0.323469677935252}, {"zipcode": 95148, "circle_area": 78.41371226364757, "zipcode_area": 21.007823009999168, "intersection_area": 3.5304126204283097}]}, {"STATE_CODE": "06", "COUNTY_CODE": "095", "COUNTY": "Solano", "EPA_ID": "0004", "SITE_LATITUDE": "38.102507", "SITE_LONGITUDE": "-122.237976", "zipcode_intersections": [{"zipcode": 94510, "circle_area": 78.41371226364757, "zipcode_area": 80.46350172500064, "intersection_area": 0.3575311068299533}, {"zipcode": 94525, "circle_area": 78.41371226364757, "zipcode_area": 6.519320475000145, "intersection_area": 0.6717776386599423}, {"zipcode": 94572, "circle_area": 78.41371226364757, "zipcode_area": 24.42535609499997, "intersection_area": 0.4161919617676202}, {"zipcode": 94589, "circle_area": 78.41371226364757, "zipcode_area": 15.416917245000015, "intersection_area": 11.611635613722523}, {"zipcode": 94590, "circle_area": 78.41371226364757, "zipcode_area": 23.283063095000312, "intersection_area": 23.222331034486732}, {"zipcode": 94591, "circle_area": 78.41371226364757, "zipcode_area": 56.288943099998875, "intersection_area": 26.77740845854046}, {"zipcode": 94592, "circle_area": 78.41371226364757, "zipcode_area": 22.02693670999872, "intersection_area": 7.827741266949205}]}, {"STATE_CODE": "06", "COUNTY_CODE": "097", "COUNTY": "Sonoma", "EPA_ID": "0004", "SITE_LATITUDE": "38.403765", "SITE_LONGITUDE": "-122.818294", "zipcode_intersections": [{"zipcode": 95401, "circle_area": 78.41371226364757, "zipcode_area": 55.91440381999952, "intersection_area": 17.46931085984851}, {"zipcode": 95407, "circle_area": 78.41371226364757, "zipcode_area": 57.71961921000025, "intersection_area": 10.777224838928944}, {"zipcode": 95472, "circle_area": 78.41371226364757, "zipcode_area": 187.78025897000367, "intersection_area": 50.16717656487026}]}, {"STATE_CODE": "06", "COUNTY_CODE": "099", "COUNTY": "Stanislaus", "EPA_ID": "0005", "SITE_LATITUDE": "37.642165", "SITE_LONGITUDE": "-120.994212", "zipcode_intersections": [{"zipcode": 95307, "circle_area": 78.41371226364757, "zipcode_area": 86.71544994500006, "intersection_area": 1.3591360553387968}, {"zipcode": 95350, "circle_area": 78.41371226364757, "zipcode_area": 23.370704999999006, "intersection_area": 19.460221127476082}, {"zipcode": 95351, "circle_area": 78.41371226364757, "zipcode_area": 23.976724945000907, "intersection_area": 21.49816483513042}, {"zipcode": 95354, "circle_area": 78.41371226364757, "zipcode_area": 20.46350420499965, "intersection_area": 15.148863150914165}, {"zipcode": 95355, "circle_area": 78.41371226364757, "zipcode_area": 24.804094940000443, "intersection_area": 8.230467766632282}, {"zipcode": 95356, "circle_area": 78.41371226364757, "zipcode_area": 59.1806544549996, "intersection_area": 0.5616202014217487}, {"zipcode": 95358, "circle_area": 78.41371226364757, "zipcode_area": 314.5570665700006, "intersection_area": 12.155239126733806}]}, {"STATE_CODE": "06", "COUNTY_CODE": "099", "COUNTY": "Stanislaus", "EPA_ID": "0006", "SITE_LATITUDE": "37.488317", "SITE_LONGITUDE": "-120.836008", "zipcode_intersections": [{"zipcode": 95315, "circle_area": 78.41371226364757, "zipcode_area": 50.20971985499977, "intersection_area": 0.18252230145545076}, {"zipcode": 95316, "circle_area": 78.41371226364757, "zipcode_area": 216.17759484500243, "intersection_area": 3.846675343558225}, {"zipcode": 95324, "circle_area": 78.41371226364757, "zipcode_area": 106.96964019500038, "intersection_area": 0.09239003363018533}, {"zipcode": 95380, "circle_area": 78.41371226364757, "zipcode_area": 203.6294877449979, "intersection_area": 58.292553440612465}, {"zipcode": 95382, "circle_area": 78.41371226364757, "zipcode_area": 28.966822539999967, "intersection_area": 15.999571144391407}]}, {"STATE_CODE": "06", "COUNTY_CODE": "101", "COUNTY": "Sutter", "EPA_ID": "0003", "SITE_LATITUDE": "39.138773", "SITE_LONGITUDE": "-121.618549", "zipcode_intersections": [{"zipcode": 95901, "circle_area": 78.41371226364757, "zipcode_area": 545.2113984250003, "intersection_area": 19.459044074537378}, {"zipcode": 95953, "circle_area": 78.41371226364757, "zipcode_area": 314.6576903550027, "intersection_area": 1.3475942743864662}, {"zipcode": 95961, "circle_area": 78.41371226364757, "zipcode_area": 125.39926051499914, "intersection_area": 7.137501949732051}, {"zipcode": 95991, "circle_area": 78.41371226364757, "zipcode_area": 113.87130691499914, "intersection_area": 27.986818191788167}, {"zipcode": 95993, "circle_area": 78.41371226364757, "zipcode_area": 227.34419452000114, "intersection_area": 22.482753773203644}]}, {"STATE_CODE": "06", "COUNTY_CODE": "107", "COUNTY": "Tulare", "EPA_ID": "2002", "SITE_LATITUDE": "36.332179", "SITE_LONGITUDE": "-119.291228", "zipcode_intersections": [{"zipcode": 93277, "circle_area": 78.41371226364757, "zipcode_area": 102.75005419499936, "intersection_area": 18.70747050454983}, {"zipcode": 93291, "circle_area": 78.41371226364757, "zipcode_area": 219.4102770399985, "intersection_area": 23.999298046956792}, {"zipcode": 93292, "circle_area": 78.41371226364757, "zipcode_area": 298.4610590100012, "intersection_area": 35.706943712140934}]}, {"STATE_CODE": "06", "COUNTY_CODE": "111", "COUNTY": "Ventura", "EPA_ID": "2002", "SITE_LATITUDE": "34.276316", "SITE_LONGITUDE": "-118.683685", "zipcode_intersections": [{"zipcode": 91304, "circle_area": 78.41371226364757, "zipcode_area": 24.692586294999018, "intersection_area": 3.9316717080622343}, {"zipcode": 91311, "circle_area": 78.41371226364757, "zipcode_area": 84.94048587999949, "intersection_area": 1.9997670199375348}, {"zipcode": 93063, "circle_area": 78.41371226364757, "zipcode_area": 92.12060048000036, "intersection_area": 54.4482574434909}, {"zipcode": 93065, "circle_area": 78.41371226364757, "zipcode_area": 77.04744345000115, "intersection_area": 2.1105530546444036}]}, {"STATE_CODE": "06", "COUNTY_CODE": "111", "COUNTY": "Ventura", "EPA_ID": "3001", "SITE_LATITUDE": "34.25239", "SITE_LONGITUDE": "-119.143182", "zipcode_intersections": [{"zipcode": 93003, "circle_area": 78.41371226364757, "zipcode_area": 52.944060799999995, "intersection_area": 1.5790689183097646}, {"zipcode": 93004, "circle_area": 78.41371226364757, "zipcode_area": 18.49654455000066, "intersection_area": 16.034245156907193}, {"zipcode": 93010, "circle_area": 78.41371226364757, "zipcode_area": 55.72375359999924, "intersection_area": 12.333187668255045}, {"zipcode": 93030, "circle_area": 78.41371226364757, "zipcode_area": 35.753955849999755, "intersection_area": 7.97893838822368}, {"zipcode": 93036, "circle_area": 78.41371226364757, "zipcode_area": 47.626908014999664, "intersection_area": 29.57445486421222}, {"zipcode": 93060, "circle_area": 78.41371226364757, "zipcode_area": 236.44336991500083, "intersection_area": 2.1421697361919954}, {"zipcode": 93066, "circle_area": 78.41371226364757, "zipcode_area": 106.72040485000042, "intersection_area": 8.771647531547998}]}, {"STATE_CODE": "06", "COUNTY_CODE": "113", "COUNTY": "Yolo", "EPA_ID": "0004", "SITE_LATITUDE": "38.53445", "SITE_LONGITUDE": "-121.7734", "zipcode_intersections": [{"zipcode": 95616, "circle_area": 78.41371226364757, "zipcode_area": 80.00341864499809, "intersection_area": 42.39210389749801}, {"zipcode": 95618, "circle_area": 78.41371226364757, "zipcode_area": 86.11430254499967, "intersection_area": 11.520130430235955}, {"zipcode": 95620, "circle_area": 78.41371226364757, "zipcode_area": 652.1915485700031, "intersection_area": 21.392140772052112}, {"zipcode": 95695, "circle_area": 78.41371226364757, "zipcode_area": 390.6335904499994, "intersection_area": 3.109337163861409}]}]